ID,Practice Name,City,District,Address,Latitude,Longitude,Phone,Website,Verification Status,Last Verified,English Signals,Emergency Services,Google Maps
Berlin-1,Berlin English Vet (Tierarztpraxis an den Allee-Arcaden),Berlin,Prenzlauer Berg,"Greifenhagener Str. 45, 10437 Berlin",52.5390605,13.438648,,https://berlin-english-vets.de,Verified,2025-12-26,Verified English Support,,
Berlin-2,The Berlin Veterinary Center (Zentrum für Tiermedizin / Dr. Rödiger),Berlin,Reinickendorf,"Scharnweberstraße 136, 13405 Berlin (Reinickendorf)",52.5638367,13.3258987,,https://www.vetzentrum-berlin.de/en/,Verified,2025-12-24,Verified by Community,24/7,
Berlin-3,Rex Tierarztpraxis (Multiple Locations),Berlin,Friedrichshain / Others,"Friedenstraße 94, 10249 Berlin",52.5222543,13.4352901,,https://www.rex.app/en,Verified,2025-12-24,Verified English Support,,
Berlin-4,Felmo Mobile Veterinarians,Berlin,Home Visits*,"Alt-Moabit 73/73a, 10555 Berlin (Mobile Service)",52.52410159999999,13.3327137,,https://felmo.de/en,Verified,2025-12-24,Verified English Support,No,
Berlin-5,Klinik für kleine Haustiere (FU Berlin Small Animal Clinic),Berlin,Düppel/Zehlendorf,"Oertzenweg 19b, 14163 Berlin (Düppel/Zehlendorf)",52.4290895,13.236957,030 83862356,https://www.vetmed.fu-berlin.de/einrichtungen/kliniken/we20/index.html,Verified,2025-12-24,Verified English Support,24/7,
Berlin-6,Dr. Jens Vöster,Berlin,Charlottenburg,"Hohenzollerndamm 185, 10713 Berlin",52.4914239,13.3181079,,https://tierarztpraxis-berlin.net,Verified,2025-12-26,Community Verified,,
Berlin-7,Tierarztpraxis Anne Gamalski,Berlin,Charlottenburg,"Weimarer Str. 9, 10625 Berlin (Charlottenburg)",52.5099783,13.3116933,,http://www.tierarztpraxis-gamalski.de/,Verified,2025-12-24,Verified English Support,,https://www.google.com/maps/place/Tierarztpraxis/data=!4m7!3m6!1s0x47a8503835ce73f9:0x45ad73e1b6d175a1!8m2!3d52.4921195!4d13.3651271!16s%2Fg%2F11mgn05v41!19sChIJ-XPONThQqEcRoXXRtuFzrUU?authuser=0&hl=en&rclk=1
Berlin-8,Kleintierspezialisten Berlin,Berlin,Tegel,"Wittestraße 30 P, 13509 Berlin (Tegel)",52.5804781,13.2946262,,https://www.kleintierspezialisten.de/en,Verified,2025-12-24,Verified English Support; Jameda Verified,,https://www.google.com/maps/place/Kleintierspezialisten/data=!4m7!3m6!1s0x47a8546da2194129:0xabec156afe70dbc2!8m2!3d52.5804499!4d13.2947749!16s%2Fg%2F11g_c36zx!19sChIJKUEZom1UqEcRwttw_moV7Ks?authuser=0&hl=en&rclk=1
Berlin-9,Veterinary Practice Bärenwiese,Berlin,Wilmersdorf,"Uhlandstraße 151, 10719 Berlin",52.5067778,13.2677368,0174 1601606,https://tierarzt-baerenwiese.de,Verified,2025-12-26,Verified English Support,24/7,
Berlin-10,Veterinary Clinic Chung & Wahle,Berlin,Friedenau,"Hauptstraße 89, 12159 Berlin",52.4746437,13.3353241,,http://tierarztpraxis-chung-wahle.com,Verified,2025-12-26,Verified English Support; Confirmed English-speaking via Google Reviews comments,,
Berlin-11,Tierarztpraxis Peters,Berlin,Weißensee,"Lehderstraße 42, 13086 Berlin (Weißensee)",52.5514741,13.437026,,https://www.tierarztpraxis-peters-weissensee.de/,Verified,2025-12-24,Verified English Support,,https://www.google.com/maps/place/Tierarztpraxis/data=!4m7!3m6!1s0x47a8503835ce73f9:0x45ad73e1b6d175a1!8m2!3d52.4921195!4d13.3651271!16s%2Fg%2F11mgn05v41!19sChIJ-XPONThQqEcRoXXRtuFzrUU?authuser=0&hl=en&rclk=1
Berlin-81,Valera Veterinary Clinic,Berlin,Zehlendorf,"Potsdamer Straße 23/24, 14163 Berlin",52.4332462,13.2592737,030 201805750,https://www.valeratierklinikberlin.com/,Verified,2025-12-26,Verified English Support,24/7,
Berlin-13,Dr. Peter Vogel,Berlin,Friedrichshain,"Finowstraße 14, 10247 Berlin",52.5234071,13.4503374,,http://www.drpetervogel.de,Verified,2025-12-26,Verified English Support; Address updated from Ebelingstraße,,
Berlin-14,Tierarztpraxis Sarah Watson,Berlin,Neukölln,"Altenbraker Str. 29, 12051 Berlin (Neukölln)",52.468653,13.4330363,,https://www.tierarzt-watson.de/,Verified,2025-12-24,Verified English Support,,https://www.google.com/maps/place/Tierarztpraxis/data=!4m7!3m6!1s0x47a8503835ce73f9:0x45ad73e1b6d175a1!8m2!3d52.4921195!4d13.3651271!16s%2Fg%2F11mgn05v41!19sChIJ-XPONThQqEcRoXXRtuFzrUU?authuser=0&hl=en&rclk=1
Berlin-15,Kleintierpraxis 4 Pfoten & Co,Berlin,Lichtenberg,"Fanningerstraße 27, 10365 Berlin (Lichtenberg)",52.5143907,13.4951561,,http://www.4pfoten-berlin.de/,Verified,2025-12-24,Verified English Support,,
Berlin-16,Tierarztpraxis Dr. Renate Lorenz,Berlin,Lichterfelde,"Oberhofer Weg 68, 12209 Berlin (Lichterfelde)",52.4183156,13.3320078,,http://tier-arzt.berlin/,Verified,2025-12-24,Verified English Support,,https://www.google.com/maps/place/Tierarztpraxis/data=!4m7!3m6!1s0x47a8503835ce73f9:0x45ad73e1b6d175a1!8m2!3d52.4921195!4d13.3651271!16s%2Fg%2F11mgn05v41!19sChIJ-XPONThQqEcRoXXRtuFzrUU?authuser=0&hl=en&rclk=1
Berlin-17,Tierarztpraxis Bartels & Wende (formerly Heinemann),Berlin,Wilmersdorf,"Mansfelder Straße 19, 10713 Berlin (Wilmersdorf)",52.4888413,13.3110131,,https://www.berliner-tierarztpraxis.de/,Verified,2025-12-24,Verified by Community,,
Berlin-18,Tierarztpraxis am Mauerpark,Berlin,Prenzlauer Berg,"Wolliner Str. 21, 10435 Berlin (Prenzlauer Berg)",52.5395953,13.401733,,https://www.tierarztpraxis-am-mauerpark.de/,Verified,2025-12-25,Verified by Community,,https://www.google.com/maps/place/Tierarztpraxis+am+Mauerpark/data=!4m7!3m6!1s0x47a852030f2840a1:0xe998cf9fcb19f10b!8m2!3d52.5471166!4d13.4082182!16s%2Fg%2F1tf9rvwn!19sChIJoUAoDwNSqEcRC_EZy5_PmOk?authuser=0&hl=en&rclk=1
Berlin-19,Tierarztpraxis Dr. Stahlhut (Tierarzt Westend),Berlin,Westend,"Reichsstraße 2, 14052 Berlin (Westend)",52.5107099,13.2709188,,https://www.tierarzt-westend.de/,Verified,2025-12-24,Verified English Support,,
Berlin-20,"Tierarztpraxis Pastor (""Tierärzte im Kiez"")",Berlin,Friedrichshagen,"Bölschestraße 8, 12587 Berlin (Friedrichshagen)",52.4478304,13.62464,,https://www.tieraerzte-im-kiez.de/,Verified,2025-12-24,Verified English Support,,
Berlin-22,Tierarztpraxis Dr. Till Robl,Berlin,Prenzlauer Berg,"Husemannstraße 3, 10435 Berlin (Prenzlauer Berg)",52.5371564,13.41717,,http://www.tierarztpraxis-robl.de/,Verified,2025-12-24,Verified English Support,,https://www.google.com/maps/place/Tierarztpraxis/data=!4m7!3m6!1s0x47a8503835ce73f9:0x45ad73e1b6d175a1!8m2!3d52.4921195!4d13.3651271!16s%2Fg%2F11mgn05v41!19sChIJ-XPONThQqEcRoXXRtuFzrUU?authuser=0&hl=en&rclk=1
Berlin-23,Tierarztpraxis Grünau (Dr. Manuela Wight),Berlin,Treptow-Köpenick,"Regattastraße 58, 12527 Berlin (Treptow-Köpenick)",52.4156983,13.5819704,,https://www.tierarztpraxisgruenau.de/,Verified,2025-12-24,Verified English Support,,
Berlin-24,Tiermedizinzentrum Berlin (Schöneberg),Berlin,Schöneberg,"Kufsteiner Str. 22, 10825 Berlin",52.4855545,13.3366726,,https://www.tiermedizinzentrum.de/,Verified,2025-12-24,Verified English Support; Jameda Verified,,https://www.google.com/maps/place/Tiermedizinzentrum+Berlin/data=!4m7!3m6!1s0x47a8506759401557:0x649b4111c0e61131!8m2!3d52.4853661!4d13.3367677!16s%2Fg%2F1thvrqll!19sChIJVxVAWWdQqEcRMRHmwBFBm2Q?authuser=0&hl=en&rclk=1
Berlin-25,Dr. med. vet. Katharina Dralle (Friedenau),Berlin,Friedenau,"Rotdornstr. 7, 12161 Berlin",52.4708837,13.3254512,,https://www.tierarzt-dralle-berlin.de/,Verified,2025-12-24,Verified English Support; Jameda Verified,,
Berlin-26,Tierarztpraxis am Schlosspark (Jana Czernutzky),Berlin,Pankow,"Dietzgenstraße 28, 13156 Berlin (Pankow)",52.5825569,13.4043662,,https://www.tierarzt-schlosspark.de/,Verified,2025-12-24,Verified English Support; Jameda Verified,,https://www.google.com/maps/place/Tierarztpraxis+am+Schlosspark/data=!4m7!3m6!1s0x47a8525d6ec6514f:0x70433b0501e19906!8m2!3d52.58247!4d13.40397!16s%2Fg%2F11clvbh33v!19sChIJT1HGbl1SqEcRBpnhAQU7Q3A?authuser=0&hl=en&rclk=1
Berlin-27,Dr. Claudia Wegeler (Tempelhof),Berlin,Tempelhof,"Rangsdorfer Str. 9, 12307 Berlin",52.3889464,13.3905872,,http://www.tierarztpraxis-dr-wegeler.de,Verified,2025-12-26,Verified English Support; Jameda Verified,,
Berlin-28,Tierarztpraxis Dr. med. vet. Stephanie Adams (Bernau),Berlin,Bernau,"Wandlitzer Chaussee 1, 16321 Bernau",52.6823492,13.5858973,,https://www.tierverhaltenstherapie-adams.de,Verified,2025-12-26,Verified English Support; Jameda Verified,,
Berlin-29,Bernhard Alexander (Schöneberg),Berlin,Schöneberg,"Hauptstr. 92, 10827 Berlin",52.4763237,13.3418436,,,Permanently Closed,2025-12-26,Verified English Support,,
Berlin-31,Tierarztpraxis am Olivaer Platz (Dr. med. vet. S. Robl),Berlin,Wilmersdorf,"Olivaer Platz 11, 10707 Berlin",52.499682,13.3162955,,,Permanently Closed,2025-12-24,Verified English Support,,
Berlin-32,AniCura Tierklinik Berlin-Biesdorf,Berlin,Biesdorf,"Alt-Biesdorf 22, 12683 Berlin (Biesdorf)",52.5087397,13.5557345,,https://www.anicura.de/standorte/tierklinik-berlin-biesdorf/,Verified,2025-12-24,Verified English Support,24/7,
Berlin-33,Tierarztpraxis Sonnenallee - Dr. Jana Kudritzki und Daniel Kitzing,Berlin,Neukölln,"Sonnenallee 204, 12059 Berlin",52.4746,13.4542,030 6814455,https://www.tierarztpraxis-sonnenallee.de/,Verified,2025-12-26,Verified English Support; Community Verified,,
Berlin-34,Tierarztpraxis am Lietzenseepark (Dr. Layla Hourani),Berlin,Charlottenburg,"Riehlstraße 3, 14057 Berlin",52.505618,13.285243,,http://tierarztpraxis-am-lietzenseepark.de,Verified,2025-12-26,Verified by Community,,
Berlin-36,Tierarztpraxis am Wasserturm,Berlin,Prenzlauer Berg,"Rykestraße 4, 10405 Berlin",52.5350841,13.4196661,,http://tierarztpraxis-wasserturm.de,Verified,2025-12-26,Verified English Support,,https://www.google.com/maps/place/Tierarztpraxis/data=!4m7!3m6!1s0x47a8503835ce73f9:0x45ad73e1b6d175a1!8m2!3d52.4921195!4d13.3651271!16s%2Fg%2F11mgn05v41!19sChIJ-XPONThQqEcRoXXRtuFzrUU?authuser=0&hl=en&rclk=1
Berlin-37,Tierarztpraxis Gotthardt,Berlin,Grunewald,"Winkler Str. 21, 14193 Berlin",52.489252,13.2714154,,http://tierarzt-berlin-gotthardt.de,Verified,2025-12-26,Verified by Community; Address updated from Winkler Straße 2,,https://www.google.com/maps/place/Tierarztpraxis/data=!4m7!3m6!1s0x47a8503835ce73f9:0x45ad73e1b6d175a1!8m2!3d52.4921195!4d13.3651271!16s%2Fg%2F11mgn05v41!19sChIJ-XPONThQqEcRoXXRtuFzrUU?authuser=0&hl=en&rclk=1
Berlin-38,Marita Toepfer Veterinary Services,Berlin,Zehlendorf,"Beerenstraße 28, 14163 Berlin",52.4364378,13.2415326,,,Permanently Closed,2025-12-26,Verified by Community,,
Berlin-39,Tierarztpraxis Dr. C. S. Alexander,Berlin,Steglitz,"Steglitzer Damm 48, 12169 Berlin",52.4501772,13.3437303,,http://tierphysiotherapie-alexander.de,Verified,2025-12-26,Verified by Community; Now specializes in animal physiotherapy,,
Berlin-40,Tierarztpraxis Ellen Laskawy,Berlin,Friedrichshain,"Bänschstraße 58, 10247 Berlin",52.5175127,13.4680346,,http://www.laskawy-berlin.de,Verified,2025-12-26,Verified English Support; Address updated from Bänschstraße 70,,https://www.google.com/maps/place/Tierarztpraxis/data=!4m7!3m6!1s0x47a8503835ce73f9:0x45ad73e1b6d175a1!8m2!3d52.4921195!4d13.3651271!16s%2Fg%2F11mgn05v41!19sChIJ-XPONThQqEcRoXXRtuFzrUU?authuser=0&hl=en&rclk=1
Berlin-41,Tierarztpraxis am Urbanhafen,Berlin,Kreuzberg,"Baerwaldstraße 69, 10961 Berlin",52.4919415,13.4029716,,http://www.tierarztpraxis-am-urbanhafen.de,Verified,2025-12-26,Confirmed English-speaking via Google Reviews comments; Address updated from Blücherstraße,,https://www.google.com/maps/place/Tierarztpraxis+am+Urbanhafen/data=!4m7!3m6!1s0x47a84fd3b653770d:0xd3240f83e30b3ce3!8m2!3d52.4956405!4d13.4053191!16s%2Fg%2F1w04j3nk!19sChIJDXdTttNPqEcR4zwL44MPJNM?authuser=0&hl=en&rclk=1
Berlin-42,Praxis Tierzuliebe (Dr. Bertram),Berlin,Charlottenburg,"Edisonstraße 12, 12459 Berlin",52.5043327,13.2957476,,http://www.praxis-tierzuliebe.de,Verified,2025-12-26,Verified by Community; Address updated from Friedbergstraße,,
Berlin-43,Mobile Tierarztpraxis Berlin - Dr. Pascal Klunder,Berlin,Schöneberg,"Gutzkowstraße 4, 10827 Berlin (Mobile Service)",52.4834,13.3524,0162 7462404,https://tierarzt-mobil-berlin.de/,Verified,2025-12-26,Verified English Support,,
Berlin-44,Tierarztpraxis Dr. Wolfgang Beck,Berlin,Neukölln,"Weichselstraße 25, 12045 Berlin (Neukölln)",52.4870325,13.4368022,030 6239664,http://www.tierarztpraxis-dr-beck.de/index.htm,Verified,2025-12-26,"Verified English Support; Community Verified; Confirmed via Google Review: ""English speaking and always have the best solutions""",,https://www.google.com/maps/place/Tierarztpraxis/data=!4m7!3m6!1s0x47a8503835ce73f9:0x45ad73e1b6d175a1!8m2!3d52.4921195!4d13.3651271!16s%2Fg%2F11mgn05v41!19sChIJ-XPONThQqEcRoXXRtuFzrUU?authuser=0&hl=en&rclk=1
Berlin-45,Medivet Berlin-Pankow,Berlin,Pankow,"Pasewalker Straße 25, 13127 Berlin",52.5883891,13.429743,,https://www.medivetgroup.com/de/tierarztpraxis-suche/berlin/medivet-berlin-pankow/,Verified,2025-12-24,Verified English Support,,https://www.google.com/maps/place/Medivet+Berlin-Pankow/data=!4m7!3m6!1s0x47a852869aaf3f49:0xad7dbeaab4648b23!8m2!3d52.5884304!4d13.429723!16s%2Fg%2F1vv2r8dy!19sChIJST-vmoZSqEcRI4tktKq-fa0?authuser=0&hl=en&rclk=1
Berlin-95,Pfotendoctor - dein digitaler Tierarzt,Berlin,Mitte,"Wöhlertstraße 12-13, 10115 Berlin",52.5372757,13.3786958,0800 7777444,https://www.pfotendoctor.de/,Verified,2025-12-25,Digital-only service with multiple reviews mentioning English-speaking doctors.; Verified English Support,,https://www.google.com/maps/place/Pfotendoctor+-+dein+digitaler+Tierarzt+%28kein+Praxisstandort+vor+Ort%29/data=!4m7!3m6!1s0x47a85717ff9f0ff7:0xc0698955e9a37b14!8m2!3d52.5372757!4d13.3786958!16s%2Fg%2F11ftc7s0fj!19sChIJ9w-f_xdXqEcRFHuj6VWJacA?authuser=0&hl=en&rclk=1
Berlin-96,Veterinary practice Galina Schirow GmbH (Hansavet),Berlin,Hansaviertel,"Bartningallee 5, 10557 Berlin",52.5190267,13.3427188,030 39886966,http://www.vetpraxis-schirow.de/,Verified,2025-12-25,"Multilingual team (English, German, Russian); Review: 'A highly competent and caring team of veterinarians - perfect for internationals!'",,https://www.google.com/maps/place/Veterinary+practice+Galina+Schirow+GmbH/data=!4m7!3m6!1s0x47a851081855956d:0x502d097849852630!8m2!3d52.5190267!4d13.3427188!16s%2Fg%2F1q4knllr2!19sChIJbZVVGAhRqEcRMCaFSXgJLVA?authuser=0&hl=en&rclk=1
Berlin-97,Tierarztpraxis Brigitte Ludwig-Kahya,Berlin,Kreuzberg,"Wilhelmstraße 3, 10963 Berlin",52.500908,13.391216,030 2513480,http://www.tierarztpraxis-in-kreuzberg.de/,Verified,2025-12-25,Review: 'EVERYONE SPEAKS ENGLISH. The place is amazingly clean and spacious.'; Fluent English staff members confirmed by multiple international pet owners.,,https://www.google.com/maps/place/Tierarztpraxis+Brigitte+Ludwig-Kahya/data=!4m7!3m6!1s0x47a8502b6084b857:0x2bae721d26f5f822!8m2!3d52.5003224!4d13.389816!16s%2Fg%2F1thwzgd_!19sChIJV7iEYCtQqEcRIvj1Jh1yris?authuser=0&hl=en&rclk=1
Frankfurt-46,Filu Vet Nordend,Frankfurt,Nordend,"Weberstraße 59, 60318 Frankfurt am Main",50.1265373,8.6865236,,https://www.filu.vet,Verified,2025-12-24,Verified English Support,,
Frankfurt-47,Rex Tierarzt Frankfurt Ostend,Frankfurt,Ostend,"Wittelsbacherallee 26, 60316 Frankfurt am Main",50.119189,8.7031839,,https://www.rex.app/clinics/frankfurt-ostend,Verified,2025-12-24,Verified English Support,,https://www.google.com/maps/place/Rex+Tierarztpraxis+Frankfurt-Ostend/data=!4m7!3m6!1s0x47bd0fec262dfc03:0x6d7a7874999d0916!8m2!3d50.1191912!4d8.7031829!16s%2Fg%2F11xrkwcz61!19sChIJA_wtJuwPvUcRFgmdmXR4em0?authuser=0&hl=en&rclk=1
Frankfurt-48,Tierarztpraxis Sonja Krämer,Frankfurt,Sossenheim,"Westerbachstraße 226, 65936 Frankfurt am Main (Sossenheim)",50.1237711,8.5766749,,https://www.tierarzt-kraemer.de/en/,Verified,2025-12-24,Verified English Support,,https://www.google.com/maps/place/Tierarztpraxis+Sonja+Kr%C3%A4mer/data=!4m7!3m6!1s0x47bd09facf58c0ef:0xe353ca2c235d346f!8m2!3d50.1238303!4d8.5768004!16s%2Fg%2F1v7tkh2r!19sChIJ78BYz_oJvUcRbzRdIyzKU-M?authuser=0&hl=en&rclk=1
Frankfurt-49,Tierarztpraxis Dr. Maike Höch,Frankfurt,Eckenheim,"Eckenheimer Landstraße 340, 60435 Frankfurt (Eckenheim)",50.1488729,8.6813374,,https://www.dr-hoech.de/en/,Verified,2025-12-24,Verified English Support,,
Frankfurt-50,Tierklinik Hofheim (Specialist Center),Hofheim,Specialist Center,"Im Ried 12, 65719 Hofheim am Taunus",50.0896786,8.4623423,,https://www.tierklinik-hofheim.de,Verified,2025-12-24,Verified English Support,24/7,
Frankfurt-51,AniCura Kleintierzentrum (Juliusstraße),Frankfurt,Bockenheim,"Juliusstraße 12, 60487 Frankfurt",50.1234958,8.6448043,,https://www.anicura.de/standorte/frankfurt/,Verified,2025-12-26,Community Verified,,
Frankfurt-52,Dr. Andrea Töpfer,Frankfurt,Ginnheim,"Füllerstraße 100, 60431 Frankfurt",50.1434282,8.6488114,,http://www.tierarztpraxis-toepfer.de,Verified,2025-12-26,Verified by Community,,
Frankfurt-53,Dr. Cavalcanti (VetPetCare),Bad Homburg,Frankfurt) & Bad Homburg,"Kirdorfer Str. 14, 61350 Bad Homburg vor der Höhe",50.1766221,8.6320784,,https://kleintierpraxis-vetpetcare.de,Verified,2025-12-24,Verified English Support,,
Frankfurt-54,Tierarztpraxis Maja Firlé,Frankfurt,Gallus/City West,"Hamburger Allee 14, 60486 Frankfurt am Main",50.1277397,8.6862685,,https://www.tierarztpraxis-frankfurt.de/,Verified,2025-12-24,Verified English Support,,https://www.google.com/maps/place/Tierarztpraxis+Maja+Firl%C3%A9/data=!4m7!3m6!1s0x47bd095d1c6b57b5:0x161891416ad46e11!8m2!3d50.1149422!4d8.649158!16s%2Fg%2F1tdq9pww!19sChIJtVdrHF0JvUcREW7UakGRGBY?authuser=0&hl=en&rclk=1
Frankfurt-55,Tierarztpraxis Sachsenhausen (Dr. Jan Kullen / Dr. Elena Panova),Frankfurt,Dr. Jan Kullen / Dr. Elena Panova,"Textorstraße 93, 60596 Frankfurt am Main",50.0995779,8.6813158,,https://www.tierarzt-sachsenhausen.de/,Verified,2025-12-24,Verified English Support,,
Frankfurt-56,Kleintierklinik Frankfurt Bockenheim,Frankfurt,Bockenheim,"Ginnheimer Landstraße 11, 60487 Frankfurt am Main",50.1288579,8.6423265,,https://www.tierklinik-frankfurt.de/,Verified,2025-12-24,Verified English Support,,
Frankfurt-57,Tierarztpraxis am Kurfürstenplatz (Bockenheim),Frankfurt,Bockenheim,"Kurfürstenstraße 3, 60486 Frankfurt am Main",50.1224332,8.6451228,,https://www.tierarzt-bockenheim.de/,Verified,2025-12-24,Verified English Support,,
Frankfurt-58,Tierarztpraxis Bornheim (Dr. Katrin Witt),Frankfurt,Dr. Katrin Witt,"Heisterstraße 1, 60385 Frankfurt am Main",50.1036973,8.696417,,https://www.tierarztpraxis-bornheim.de/,Verified,2025-12-24,Verified by Community,,
Frankfurt-59,Tierarztpraxis Dr. Joachim & Katja Gross,Frankfurt,Sachsenhausen,"Mörfelder Landstraße 263, 60598 Frankfurt (Sachsenhausen)",50.0935559,8.6782109,,https://www.tierarzt-frankfurt-sachsenhausen.de/,Verified,2025-12-24,Verified English Support,,
Frankfurt-60,Tierklinik Kalbach (Kleintierklinik am Nordpark),Frankfurt,"Am Nordpark 10), 60437 Frankfurt am Main","Max-Holder-Straße 4 (Am Nordpark 10), 60437 Frankfurt am Main",50.18973,8.6509635,,https://tierklinik-kalbach.de/,Verified,2025-12-24,Verified English Support,24/7,
Frankfurt-61,Tierarztpraxis Berger (Melanie Berger),Frankfurt,Sachsenhausen,"Darmstädter Landstraße 48, 60594 Frankfurt (Sachsenhausen)",50.1019831,8.6906204,,https://tierarztpraxis-berger.com/,Verified,2025-12-24,Verified English Support; Community Verified,,https://www.google.com/maps/place/Tierarztpraxis+Melanie+Berger/data=!4m7!3m6!1s0x47bd11dd8fa0d3b3:0xd336e23081647328!8m2!3d50.1020249!4d8.6906263!16s%2Fg%2F11d_ww1srk!19sChIJs9Ogj90RvUcRKHNkgTDiNtM?authuser=0&hl=en&rclk=1
Frankfurt-62,Tierklinik Trillig (Obertshausen),Frankfurt,Obertshausen,"Birkenwaldstr. 42, 63179 Obertshausen",50.07601040000001,8.875295,,https://www.tierklinik-trillig.de,Verified,2025-12-24,Verified English Support,,
Frankfurt-63,Kleintierpraxis Frankfurt (Dr. Moudrianakis),Frankfurt,Frankfurt,"Leerbachstraße 122, 60322 Frankfurt",50.1243152,8.6719379,,http://www.kleintierpraxis-frankfurt.de,Verified,2025-12-26,Verified by Community,,https://www.google.com/maps/place/Kleintierpraxis+Frankfurt/data=!4m7!3m6!1s0x47bd0eb4cd1defcf:0xd44b022c64076b8a!8m2!3d50.1243387!4d8.671881!16s%2Fg%2F1tgw90g5!19sChIJz-8dzbQOvUcRimsHZCwCS9Q?authuser=0&hl=en&rclk=1
Frankfurt-64,Dr. med. vet. Sandra Härtter,Frankfurt,Bergen-Enkheim,"Leuchte 47, 60388 Frankfurt",50.1433522,8.7626709,,http://www.tierarzt-bergen-enkheim.de,Verified,2025-12-26,Verified English Support,,
Frankfurt-65,Tierarztpraxis Dr. med. vet. Moormann,Königstein,Königstein,"Frankfurter Str. 11, 61462 Königstein im Taunus",50.1815992,8.471150399999999,,https://www.tierarzt-moormann.de/,Verified,2025-12-24,Verified English Support; Community Verified,,
Frankfurt-66,Praxis Dr. med. vet. Anette Fach (Oberursel),Oberursel,Taunus,"Dornbachstr. 33 a, 61440 Oberursel (Taunus)",50.2144864,8.5668588,,https://www.kleintierpraxis-oberursel.de/,Verified,2025-12-24,Verified English Support; Jameda Verified,,
Frankfurt-67,Kleintierpraxis am Zauberberg (Dr. Katja Feuerbacher),Kelkheim,Taunus,"Robert-Koch-Str. 116, 65779 Kelkheim (Taunus)",50.1773429,8.404821,,https://www.kleintierpraxis-kelkheim.de/,Verified,2025-12-24,Verified English Support; Jameda Verified,,
Frankfurt-68,Felmo Mobiler Tierarzt (Frankfurt),Frankfurt,Frankfurt,"Königsberger Str. 2, 60487 Frankfurt am Main (Mobile Service)",50.1290747,8.628140799999999,,https://felmo.de/tierarzt/frankfurt,Verified,2025-12-24,Verified English Support,,https://www.google.com/maps/place/felmo+Mobiler+Tierarzt+Frankfurt/data=!4m7!3m6!1s0x47bd0f1033e794c9:0xa6c205570edc16e6!8m2!3d50.129075!4d8.628141!16s%2Fg%2F11r3v_j65g!19sChIJyZTnMxAPvUcR5hbcDlcFwqY?authuser=0&hl=en&rclk=1
Hamburg-69,filu Tierarztpraxis Winterhude,Hamburg,Winterhude,"Mühlenkamp 21A, 22303 Hamburg",53.5808087,10.0112803,,https://filu.vet/hamburg/winterhude,Verified,2025-12-24,Verified English Support,,
Hamburg-70,Rex Tierarztpraxis (Winterhude & Ottensen),Hamburg,Winterhude & Ottensen,"Winterhuder Marktplatz 1, 22299 Hamburg / Ottensen",53.5942753,9.9987207,,https://www.rex.app/en,Verified,2025-12-24,Verified English Support,,
Hamburg-71,VetZentrum Hafencity,Hamburg,Hafencity,"Baakenallee 90, 20457 Hamburg",53.5364937,10.0169081,,https://www.vetzentrum-hafencity.de/,Verified,2025-12-24,Verified English Support,,
Hamburg-72,Tierarztpraxis am Millerntor,Hamburg,St. Pauli,"Budapester Straße 31, 20359 Hamburg",53.5537665,9.9648394,,https://www.tierarztpraxis-am-millerntor.de/,Verified,2025-12-26,Verified English Support; Community Verified,,https://www.google.com/maps/place/Tierarztpraxis+am+Millerntor+Voelkel/data=!4m7!3m6!1s0x47b18f6c3e43e9eb:0x2c0757b67b64e246!8m2!3d53.5537481!4d9.96479!16s%2Fg%2F11dxbmp1v0!19sChIJ6-lDPmyPsUcRRuJke7ZXByw?authuser=0&hl=en&rclk=1
Hamburg-73,Tierarztpraxis ElbVet Hamburg,Hamburg,Bahrenfeld/Altona,"Friedensallee 290, 22763 Hamburg (Bahrenfeld/Altona)",53.5598548,9.9106261,,https://www.elbvet-hamburg.de/,Verified,2025-12-25,"Verified English Support; Confirmed via Google Review: ""was friendly, experienced, and could communicate well in English.""",,https://www.google.com/maps/place/Tierarztpraxis+ElbVet+Hamburg/data=!4m7!3m6!1s0x47b1856fe7d43e95:0x6934c6336fc69d77!8m2!3d53.56439!4d9.91812!16s%2Fg%2F11h0zbm_6t!19sChIJlT7U52-FsUcRd53GbzPGNGk?authuser=0&hl=en&rclk=1
Hamburg-74,AniCura Kleintierzentrum (Niendorf),Hamburg,Niendorf,"Garstedter Weg 274, 22455 Hamburg",53.6386928,9.9699638,,https://www.anicura.de/hamburg-niendorf,Verified,2025-12-24,Verified English Support; Jameda Verified,24/7,
Hamburg-75,Medivet Tierarztpraxis Hamburg-Stellingen,Hamburg,Stellingen,"Kieler Straße 336, 22525 Hamburg",53.5872479,9.9327793,,https://www.medivetgroup.com/de/tierarztpraxis-suche/hamburg/medivet-hamburg-stellingen/,Verified,2025-12-25,Verified English Support,,https://www.google.com/maps/place/Medivet+Tierarztpraxis+Hamburg-Stellingen/data=!4m7!3m6!1s0x47b185faf8a8ee2d:0xecf43e4f270a4c6f!8m2!3d53.5871493!4d9.9325501!16s%2Fg%2F1tx462gw!19sChIJLe6o-PqFsUcRb0wKJ08-9Ow?authuser=0&hl=en&rclk=1
Hamburg-76,Dr. med. vet. Fabian von Manteuffel,Hamburg,Bramfeld,"Hülsdornweg 24, 22179 Hamburg (Bramfeld)",53.5950623,10.0650516,,http://www.tierarzt-manteuffel.de/,Verified,2025-12-25,"Verified English Support; Confirmed via Google Review: ""English-speaking doctor.""",,https://www.google.com/maps/place/Dr.+med.+vet.+Fabian+von+Manteuffel/data=!4m7!3m6!1s0x47b1895d9e0164a3:0x31017aefc542e55d!8m2!3d53.5950214!4d10.0651161!16s%2Fg%2F1v_z3d0t!19sChIJo2QBnl2JsUcRXeVCxe96ATE?authuser=0&hl=en&rclk=1
Hamburg-77,Dr. med. vet. Michael Gervers,Hamburg,Barmbek-Nord,"Fuhlsbüttler Str. 344, 22307 Hamburg (Barmbek-Nord)",53.6010893,10.0413859,,http://www.tierarzt-gervers.de/,Verified,2025-12-24,Verified English Support; Jameda Verified,,
Hamburg-78,Tierärztliche Gemeinschaftspraxis St. Pauli (Dr. Svenja Korth),Hamburg,St. Pauli,"Hopfenstraße 11-13, 20359 Hamburg",53.5573499,9.9691309,,https://tierarzt-stpauli.hamburg,Verified,2025-12-26,Verified English Support; Jameda Verified,,
Hamburg-79,Dr. med. vet. Dagmar H. Vogel,Hamburg,Eimsbüttel,"Tresckowstr. 6, 20259 Hamburg",53.5739651,9.963081,,http://www.tierarzt-hh.de,Verified,2025-12-26,Verified English Support; Jameda Verified,,
Hamburg-80,AniCura Fachzentrum Hamburg (Jenfeld),Hamburg,Jenfeld,"Rodigallee 85, 22043 Hamburg",53.5706531,10.1050302,,https://www.anicura.de/hamburg,Verified,2025-12-24,Verified English Support,,
Hamburg-82,Tierarztpraxis Dr. Stefanie Möller,Hamburg,Harvestehude,"Isestraße 49, 20144 Hamburg",53.5817841,9.9817247,,,Verified but No Website Found,2025-12-26,Verified by Community,,
Hamburg-83,Dr. med. vet. Imke Tammena,Hamburg,Sasel,"Waldweg 42, 22393 Hamburg",53.6552338,10.1206751,,http://tierarztpraxis-sasel.de,Verified,2025-12-26,Verified English Support; Jameda Verified; Community Verified,,
Hamburg-84,Tierarztpraxis Sülldorf (Gwendolien Lehmann),Hamburg,Sülldorf,"Sülldorfer Kirchenweg 2, 22587 Hamburg",53.5640672,9.8128885,,https://www.tierarzt-blankenese.de,Verified,2025-12-26,Verified English Support; Jameda Verified,,
Hamburg-85,Tierarztpraxis Simon,Hamburg,Rahlstedt,"Bargteheider Str. 156, 22143 Hamburg",53.6005735,10.1438955,,https://simon.hamburg/,Verified,2025-12-26,Verified English Support,,https://www.google.com/maps/place/Tierarztpraxis+Simon/data=!4m7!3m6!1s0x47b18babb133b0a9:0x8790e5e344ef6544!8m2!3d53.6115286!4d10.1537557!16s%2Fg%2F1vxcvgkb!19sChIJqbAzsauLsUcRRGXvROPlkIc?authuser=0&hl=en&rclk=1
Hamburg-88,Tierklinik Lademannbogen,Hamburg,Hummelsbüttel,"Lademannbogen 126, 22339 Hamburg",53.6438854,10.0290527,,https://www.tierklinik-lademannbogen.de,Verified,2025-12-26,Verified English Support,24/7,https://www.google.com/maps/place/Tierklinik+Lademannbogen+GmbH/data=!4m7!3m6!1s0x47b1883526a596df:0x681f94e0db140824!8m2!3d53.6448131!4d10.0334358!16s%2Fg%2F1tkrkvtt!19sChIJ35alJjWIsUcRJAgU2-CUH2g?authuser=0&hl=en&rclk=1
Hamburg-86,Dr. med. vet. Eva Tutlies,Hamburg,Billstedt,"Schiffbeker Weg 46, 22119 Hamburg",53.5444196,10.1048408,,http://kleintierpraxis-tutlies.de,Verified,2025-12-26,Verified by Community,,
Hamburg-87,Dr. med. vet. Nicolai Mannstaedt,Hamburg,Neugraben,"Neugrabener Bahnhofstraße 5a, 21149 Hamburg",53.4677627,9.8547253,,http://kleintierpraxis-neugraben.de,Verified,2025-12-26,Verified English Support; Practice now Kleintierpraxis Neugraben,,https://www.google.com/maps/place/Dr.+Nicolai+Mannstaedt+veterinarian/data=!4m7!3m6!1s0x47b19ae2e052bee9:0x2a58942d3b00fae2!8m2!3d53.4731841!4d9.8545931!16s%2Fg%2F1tf7lmg9!19sChIJ6b5S4OKasUcR4voAOy2UWCo?authuser=0&hl=en&rclk=1
Hamburg-89,Dr. med. vet. Klaus-Henning von Kuenheim,Hamburg,Bramfeld,"Bramfelder Chaussee 10, 22177 Hamburg",53.5939221,10.0599291,,,Verified but No Website Found,2025-12-26,Verified English Support,,
Hamburg-91,Tierarztpraxis Dr. von Marnitz,Hamburg,Schnelsen,"Holsteiner Chaussee 38, 22523 Hamburg",53.6117063,9.9056719,,https://www.von-marnitz.de,Verified,2025-12-26,Verified English Support,,"https://www.google.com/maps/place/Tierarztpraxis+Dr.+von+Marnitz+GmbH,+Holsteiner+Chaussee/data=!4m7!3m6!1s0x47b18655204e5b39:0x8864116fa18a9a8b!8m2!3d53.6116731!4d9.9056929!16s%2Fg%2F11btwvjgn5!19sChIJOVtOIFWGsUcRi5qKoW8RZIg?authuser=0&hl=en&rclk=1"
Hamburg-90,Dr. Mirja Fenske,Hamburg,Lohbrügge,"Osterrade 36 a, 21031 Hamburg",53.5106736,10.1845589,,http://tierarztbergedorf.de,Verified,2025-12-26,Jameda Verified,,
Hamburg-94,Felmo Mobiler Tierarzt (Hamburg),Hamburg,Hamburg,"Borsteler Chaussee 85-99, 22453 Hamburg",53.6050408,9.9792363,,,Verified,2025-12-25,"Verified English Support; Confirmed via Google Review: ""English and she was kind patient!""",,https://www.google.com/maps/place/felmo+Mobiler+Tierarzt+Hamburg/data=!4m7!3m6!1s0x47b189458b2e857f:0x29e930c39b522a8e!8m2!3d53.6050408!4d9.9792362!16s%2Fg%2F11ny2glch0!19sChIJf4Uui0WJsUcRjipSm8Mw6Sk?authuser=0&hl=en&rclk=1
Berlin-98,Tierarztpraxis Dr. Demmler und Dr. Wehming,Berlin,Berlin,"Wiener Straße 25, 10999 Berlin",52.49969,13.43355,030 6181766,https://www.tierarzt-wienerstrasse.de/,Verified,2025-12-26,"Confirmed English-speaking via Google Reviews comments; Confirmed via Google Review: ""English speaking doctors!""",,
Berlin-99,Dr. Johanna Pauls,Berlin,Berlin,"Rykestraße 35, 10405 Berlin",52.5385307,13.4216955,030 23900061,http://www.kleintier-sonographie.de/?page_id=122,Verified,2025-12-25,Confirmed English-speaking via Google Reviews comments,,https://www.google.com/maps/place/Dr.+Johanna+Pauls/data=!4m7!3m6!1s0x47a84e00de054f03:0xd88aadf11ead293d!8m2!3d52.5385307!4d13.4216955!16s%2Fg%2F11c1tlz48s!19sChIJA08F3gBOqEcRPSmtHvGtitg?authuser=0&hl=en&rclk=1
Berlin-101,Kleintiermedizin am Lützowufer,Berlin,Berlin,"Lützowufer 24, 10787 Berlin",52.5062018,13.3493321,030 26397900,https://www.vet-berlin.de/,Verified,2025-12-25,Confirmed English-speaking via Google Reviews comments,,https://www.google.com/maps/place/Kleintiermedizin+am+L%C3%BCtzowufer/data=!4m7!3m6!1s0x47a851ad2a53ba37:0x9b8a2da25d7c1a36!8m2!3d52.5062018!4d13.3493321!16s%2Fg%2F11fxvtrx2s!19sChIJN7pTKq1RqEcRNhp8XaItips?authuser=0&hl=en&rclk=1
Berlin-102,Dipl.Med.Vet. Jörg Porada,Berlin,Berlin,"Rungestraße 18, 10179 Berlin",52.5121682,13.419935,030 2754906,https://tierarztportal.com/berlin/653-dipl-vet-med-joerg-porada,Verified,2025-12-25,Confirmed English-speaking via Google Reviews comments,,https://www.google.com/maps/place/Dipl.Med.Vet.+J%C3%B6rg+Porada/data=!4m7!3m6!1s0x416523c75ea54025:0xb6778bc277d3c95d!8m2!3d52.5121682!4d13.419935!16s%2Fg%2F1vc6cd_d!19sChIJJUClXscjZUERXcnTd8KLd7Y?authuser=0&hl=en&rclk=1
Berlin-103,Tierarztpraxis Liegnitzer,Berlin,Berlin,"Liegnitzer Str. 19, 10999 Berlin",52.4929802,13.4338649,030 6126474,http://www.tierarztpraxis-liegnitzer.de/,Verified,2025-12-25,Confirmed English-speaking via Google Reviews comments,,https://www.google.com/maps/place/Tierarztpraxis+Liegnitzer/data=!4m7!3m6!1s0x416523758d183683:0xf7206235691d1a5c!8m2!3d52.4929802!4d13.4338649!16s%2Fg%2F11b6b3ngv4!19sChIJgzYYjXUjZUERXBodaTViIPc?authuser=0&hl=en&rclk=1
Berlin-104,Pet-Station (Tierarztpraxis),Berlin,Schöneberg,"Kulmer Str. 26, 10783 Berlin",52.4921297,13.3651314,030 51058546,https://pet-station.de/,Verified,2025-12-26,Verified English Support; Merged with general Tierarztpraxis entry,,https://www.google.com/maps/place/Tierarztpraxis/data=!4m7!3m6!1s0x47a8503835ce73f9:0x45ad73e1b6d175a1!8m2!3d52.4921195!4d13.3651271!16s%2Fg%2F11mgn05v41!19sChIJ-XPONThQqEcRoXXRtuFzrUU?authuser=0&hl=en&rclk=1
Berlin-105,Tierarztpraxis Rödiger - Das Veterinärmedizinische Zentrum Berlin - 24h geöffnet,Berlin,Berlin,"Scharnweberstraße 136, 13405 Berlin",52.5643159,13.3262383,030 4127357,https://www.vetzentrum-berlin.de/,Verified,2025-12-25,Verified by Community,,https://www.google.com/maps/place/Tierarztpraxis+R%C3%B6diger+-+Das+Veterin%C3%A4rmedizinische+Zentrum+Berlin+-+24h+ge%C3%B6ffnet/data=!4m7!3m6!1s0x47a853ef387aaf1f:0xdb64322c775ad6a9!8m2!3d52.564316!4d13.326238!16s%2Fg%2F1tj56td9!19sChIJH696OO9TqEcRqdZadywyZNs?authuser=0&hl=en&rclk=1
Berlin-106,Veterinary Practice by the Water Tower,Berlin,Berlin,"Rykestraße 4, 10405 Berlin",52.5350514,13.419747,030 4420329,http://www.tierarztpraxis-wasserturm.de/,Verified,2025-12-25,Verified English Support,,https://www.google.com/maps/place/Veterinary+Practice+by+the+Water+Tower/data=!4m7!3m6!1s0x47a84e03e9285567:0xb5fe0b87abb728f0!8m2!3d52.5350514!4d13.419747!16s%2Fg%2F1234r5bv1!19sChIJZ1Uo6QNOqEcR8Ci3q4cL_rU?authuser=0&hl=en&rclk=1
Berlin-107,Veterinarian and cattery,Berlin,Berlin,"Conrad-Blenkle-Straße 4, 10407 Berlin",52.5281499,13.4502641,030 42085005,http://www.tierarztpraxis-am-velodrom.de/,Verified,2025-12-25,"Confirmed via Google Review: ""English language support.""",,https://www.google.com/maps/place/Veterinarian+and+cattery/data=!4m7!3m6!1s0x47a84e71edabbaf1:0xcdafb946c2a44b7b!8m2!3d52.5281499!4d13.4502641!16s%2Fg%2F1tctwlbc!19sChIJ8bqr7XFOqEcRe0ukwka5r80?authuser=0&hl=en&rclk=1
Berlin-108,Felmo Mobiler Tierarzt Berlin,Berlin,Berlin,"Alt-Moabit 73/73a, 10555 Berlin",52.524102,13.332714,0800 0010347,,Verified,2025-12-25,Verified by Community,,https://www.google.com/maps/place/felmo+Mobiler+Tierarzt+Berlin/data=!4m7!3m6!1s0x47a851daf8337149:0x6726eb1d6104038b!8m2!3d52.524102!4d13.332714!16s%2Fg%2F11hds6bxzr!19sChIJSXEz-NpRqEcRiwMEYR3rJmc?authuser=0&hl=en&rclk=1
Berlin-109,Tierarztpraxis Rödiger - Das Veterinärmedizinische Zentrum Berlin - 24h geöffnet,Berlin,Berlin,"Scharnweberstraße 136, 13405 Berlin",52.564316,13.326238,030 4127357,,Verified,2025-12-25,Verified by Community,,https://www.google.com/maps/place/Tierarztpraxis+R%C3%B6diger+-+Das+Veterin%C3%A4rmedizinische+Zentrum+Berlin+-+24h+ge%C3%B6ffnet/data=!4m7!3m6!1s0x47a853ef387aaf1f:0xdb64322c775ad6a9!8m2!3d52.564316!4d13.326238!16s%2Fg%2F1tj56td9!19sChIJH696OO9TqEcRqdZadywyZNs?authuser=0&hl=en&rclk=1
Berlin-110,Dr. Ulusal veterinarian,Berlin,Berlin,"Prinzenallee 72-73, 13357 Berlin",52.5554661,13.3836295,030 4936060,http://www.tierarzt-in-wedding.de/,Verified,2025-12-25,Verified by Community,,https://www.google.com/maps/place/Dr.+Ulusal+veterinarian/data=!4m7!3m6!1s0x416521a502f61045:0xf80f1d3a889bfb9e!8m2!3d52.5554661!4d13.3836295!16s%2Fg%2F12lvkr1tc!19sChIJRRD2AqUhZUERnvubiDodD_g?authuser=0&hl=en&rclk=1
Berlin-111,Veterinary clinic for cats - vets for cats Berlin,Berlin,Berlin,"Bayerischer Pl. 2, 10779 Berlin",52.4897329,13.3391583,030 34398877,https://www.vetsforcats.de/,Verified,2025-12-25,Verified by Community,,https://www.google.com/maps/place/Veterinary+clinic+for+cats+-+vets+for+cats+Berlin/data=!4m7!3m6!1s0x47a8505c14dd0365:0x6592bbfb53015b3e!8m2!3d52.4897329!4d13.3391583!16s%2Fg%2F1ptvqbly0!19sChIJZQPdFFxQqEcRPlsBU_u7kmU?authuser=0&hl=en&rclk=1
Berlin-112,Veterinary clinic for small animals and pets,Berlin,Berlin,"Alt-Biesdorf 22, 12683 Berlin",52.5087827,13.5557674,030 5143760,https://www.tierklinik-in-biesdorf.de/,Verified,2025-12-25,"Confirmed via Google Review: ""was kind, calm and they spoke""",,https://www.google.com/maps/place/Veterinary+clinic+for+small+animals+and+pets/data=!4m7!3m6!1s0x47a84941fd712d3b:0x565c966c172f20cd!8m2!3d52.5087827!4d13.5557674!16s%2Fg%2F1td57n5r!19sChIJOy1x_UFJqEcRzSAvF2yWXFY?authuser=0&hl=en&rclk=1
Berlin-113,Rex Tierarztpraxis Berlin-Prenzlauer Berg,Berlin,Berlin,"Greifswalder Str. 204, 10405 Berlin",52.5334687,13.4293548,030 91733620,https://www.rex.app/praxen/berlin-prenzlauer-berg,Verified,2025-12-25,Verified by Community,,https://www.google.com/maps/place/Rex+Tierarztpraxis+Berlin-Prenzlauer+Berg/data=!4m7!3m6!1s0x47a84fddfeb06ccf:0xfce256665a5b5802!8m2!3d52.5334687!4d13.4293548!16s%2Fg%2F11vyxr1h3w!19sChIJz2yw_t1PqEcRAlhbWmZW4vw?authuser=0&hl=en&rclk=1
Berlin-114,Felmo Mobiler Tierarzt Berlin,Berlin,Berlin,"Alt-Moabit 73/73a, 10555 Berlin",52.5241016,13.3327137,030 31196542,https://felmo.de/tierarzt/berlin/?utm_medium=referral&utm_source=google_my_business&utm_term=berlin,Verified,2025-12-25,Verified by Community,,https://www.google.com/maps/place/felmo+Mobiler+Tierarzt+Berlin/data=!4m7!3m6!1s0x47a851daf8337149:0x6726eb1d6104038b!8m2!3d52.524102!4d13.332714!16s%2Fg%2F11hds6bxzr!19sChIJSXEz-NpRqEcRiwMEYR3rJmc?authuser=0&hl=en&rclk=1
Berlin-115,Dr.med.vet. Claudia Pastor Tierärztin,Berlin,Berlin,"Brüsseler Str. 52A, 13353 Berlin",52.54868,13.3531601,030 4539080,http://www.tierarztpraxis-pastor.de/,Verified,2025-12-25,Verified by Community,,https://www.google.com/maps/place/Dr.med.vet.+Claudia+Pastor+Tier%C3%A4rztin/data=!4m7!3m6!1s0x47a8517e21566743:0x114581b9a63794aa!8m2!3d52.54868!4d13.3531601!16s%2Fg%2F1tv235bz!19sChIJQ2dWIX5RqEcRqpQ3prmBRRE?authuser=0&hl=en&rclk=1
Berlin-116,Dr. med. vet. Claudia Handke,Berlin,Berlin,"Danziger Str. 15, 10435 Berlin",52.5407316,13.4157091,030 4421760,http://www.tierarztpraxis-prenzlauerberg.de/,Verified,2025-12-25,Verified by Community,,https://www.google.com/maps/place/Dr.+med.+vet.+Claudia+Handke/data=!4m7!3m6!1s0x47a851ffe8bf593f:0x91d6e1cf0d7f4c94!8m2!3d52.5407316!4d13.4157091!16s%2Fg%2F1tfw21mc!19sChIJP1m_6P9RqEcRlEx_Dc_h1pE?authuser=0&hl=en&rclk=1
Berlin-118,Kleintierpraxis im Kiez - TA Jörg Saecker,Berlin,Berlin,"Pohlstraße 69, 10785 Berlin",52.5008191,13.3628081,0163 6746922,http://www.kieztierarzt.de/,Verified,2025-12-25,Verified by Community,,https://www.google.com/maps/place/Kleintierpraxis+im+Kiez+-+TA+J%C3%B6rg+Saecker/data=!4m7!3m6!1s0x47a8504a492c46a7:0x39b2ed0c13067f81!8m2!3d52.5008191!4d13.3628081!16s%2Fg%2F1tdq9m52!19sChIJp0YsSUpQqEcRgX8GEwztsjk?authuser=0&hl=en&rclk=1
Berlin-119,Veterinary practice Friedrichshain Sabine Heidel,Berlin,Berlin,"Auerstraße 44, 10249 Berlin",52.5209184,13.4462681,030 78083485,http://www.tierarztpraxis-friedrichshain.de/,Verified,2025-12-25,Verified by Community,,https://www.google.com/maps/place/Veterinary+practice+Friedrichshain+Sabine+Heidel/data=!4m7!3m6!1s0x47a84e695cc6d7f1:0x3283c49cdeb81b59!8m2!3d52.5209184!4d13.4462681!16s%2Fg%2F11c6f0l69_!19sChIJ8dfGXGlOqEcRWRu43pzEgzI?authuser=0&hl=en&rclk=1
Berlin-120,Tierarztpraxis Dr. Peter Vogel,Berlin,Berlin,"Finowstraße 14, 10247 Berlin",52.5114026,13.4666047,030 29776835,http://www.drpetervogel.de/,Verified,2025-12-25,Verified by Community,,https://www.google.com/maps/place/Tierarztpraxis+Dr.+Peter+Vogel/data=!4m7!3m6!1s0x47a84e5e02696dbf:0x3d814eedbcad95ff!8m2!3d52.5114026!4d13.4666047!16s%2Fg%2F1tvt9ckb!19sChIJv21pAl5OqEcR_5WtvO1OgT0?authuser=0&hl=en&rclk=1
Berlin-121,Veterinary practice E. Laskawy,Berlin,Berlin,"Bänschstraße 58, 10247 Berlin",52.5176605,13.4663371,030 4267684,http://www.laskawy-berlin.de/,Verified,2025-12-25,Verified by Community,,https://www.google.com/maps/place/Veterinary+practice+E.+Laskawy/data=!4m7!3m6!1s0x47a84e61d0077367:0x5bd567a75ef25002!8m2!3d52.5176605!4d13.4663371!16s%2Fg%2F1tffncfm!19sChIJZ3MH0GFOqEcRAlDyXqdn1Vs?authuser=0&hl=en&rclk=1
Berlin-122,Rex Tierarztpraxis Berlin-Friedrichshain,Berlin,Berlin,"Revaler Str. 17, 10245 Berlin",52.5072059,13.4575494,030 91734338,https://www.rex.app/praxen/rex-berlin-friedrichshain,Verified,2025-12-25,Verified by Community,,https://www.google.com/maps/place/Rex+Tierarztpraxis+Berlin-Friedrichshain/data=!4m7!3m6!1s0x47a84f9be0f199a1:0x1bc2f105df77e470!8m2!3d52.5072059!4d13.4575494!16s%2Fg%2F11vhg12w0x!19sChIJoZnx4JtPqEcRcOR33wXxwhs?authuser=0&hl=en&rclk=1
Berlin-123,Tierarztpraxis Rotgang,Berlin,Berlin,"Greifswalder Str: 21, 10405 Berlin",52.5310183,13.4278352,030 4254696,https://www.tierarztpraxis-rotgang.de/,Verified,2025-12-25,Verified by Community,,https://www.google.com/maps/place/Tierarztpraxis+Rotgang/data=!4m7!3m6!1s0x47a84f8d95729e73:0x6bb27b6cd086cd71!8m2!3d52.5310183!4d13.4278352!16s%2Fg%2F11qr9m8bs3!19sChIJc55ylY1PqEcRcc2G0Gx7sms?authuser=0&hl=en&rclk=1
Berlin-124,Tierarztpraxis Oldenburger Straße,Berlin,Berlin,"Oldenburger Str. 44, 10551 Berlin",52.5289304,13.3357299,030 3951555,http://www.tierarztpraxis-oldenburger-strasse.de/,Verified,2025-12-25,Verified by Community,,https://www.google.com/maps/place/Tierarztpraxis+Oldenburger+Stra%C3%9Fe/data=!4m7!3m6!1s0x47a8510d369c5953:0xebafa45584e9073b!8m2!3d52.5289304!4d13.3357299!16s%2Fg%2F11c6_bkhly!19sChIJU1mcNg1RqEcROwfphFWkr-s?authuser=0&hl=en&rclk=1
Berlin-125,Tierarztpraxis am Südkreuz,Berlin,Berlin,"Gustav-Müller-Straße 19, 10829 Berlin",52.4808667,13.3621523,030 96083860,http://www.tierarztpraxis-am-suedkreuz.de/,Verified,2025-12-25,Verified by Community,,https://www.google.com/maps/place/Tierarztpraxis+am+S%C3%BCdkreuz/data=!4m7!3m6!1s0x47a85015c7a92a8b:0x82877ba7d1db3449!8m2!3d52.4808667!4d13.3621523!16s%2Fg%2F1ts1r7x_!19sChIJiyqpxxVQqEcRSTTb0ad7h4I?authuser=0&hl=en&rclk=1
Berlin-126,DER TIERARZT Dr. Theobald in Schöneberg,Berlin,Berlin,"Eisenacher Str. 40, 10781 Berlin",52.4898995,13.3487913,030 2111779,https://tierarztschoeneberg.de/,Verified,2025-12-25,Verified by Community,,https://www.google.com/maps/place/DER+TIERARZT+Dr.+Theobald+in+Sch%C3%B6neberg/data=!4m7!3m6!1s0x47a850448045a28d:0x97ce7237bb30acd9!8m2!3d52.4898995!4d13.3487913!16s%2Fg%2F1tfrfs_1!19sChIJjaJFgERQqEcR2awwuzdyzpc?authuser=0&hl=en&rclk=1
Hamburg-95,Die Hamburger Tierärzte - Dr. med. vet. Ulf Krohn und Florian Grosser - Praxis für kleine Haustiere,Hamburg,Hohenfelde,"Lübecker Str. 128 U-Bahn Wartenau U 1, 22087 Hamburg",53.5635992,10.0345325,040 2202331,http://www.dht.hamburg/,Verified,2025-12-25,"Confirmed via Google Review: ""speak English and even Portuguese.""",,https://www.google.com/maps/place/Die+Hamburger+Tier%C3%A4rzte+-+Dr.+med.+vet.+Ulf+Krohn+und+Florian+Grosser+-+Praxis+f%C3%BCr+kleine+Haustiere/data=!4m7!3m6!1s0x47b18ec55536f43b:0x1a18fb8effcafde3!8m2!3d53.5635992!4d10.0345325!16s%2Fg%2F1th0lz0k!19sChIJO_Q2VcWOsUcR4_3K_477GBo?authuser=0&hl=en&rclk=1
Hamburg-96,Kleintierzentrum Kotzian,Hamburg,Alsterdorf,"Alsterdorfer Str. 255A, 22297 Hamburg",53.6082228,10.0052354,040 5110707,http://www.tierklinik-kotzian.de/,Verified,2025-12-25,Verified English Support,,https://www.google.com/maps/place/Kleintierzentrum+Kotzian/data=!4m7!3m6!1s0x47b188e5f500c741:0x3151dc970f32ca0!8m2!3d53.6082228!4d10.0052354!16s%2Fg%2F11g8162s7n!19sChIJQccA9eWIsUcRoCzzcMkdFQM?authuser=0&hl=en&rclk=1
Hamburg-97,Tierklinik Fuhlsbüttel,Hamburg,Fuhlsbüttel,"Farnstraße 41, 22335 Hamburg",53.6327356,10.0210687,040 592859,https://www.tierarztfuhlsbuettel.de/,Verified,2025-12-25,Verified English Support,,https://www.google.com/maps/place/Tierklinik+Fuhlsb%C3%BCttel/data=!4m7!3m6!1s0x47b1884e1ebf891b:0x8d23676c513fb96c!8m2!3d53.6327356!4d10.0210687!16s%2Fg%2F11fmz268z2!19sChIJG4m_Hk6IsUcRbLk_UWxnI40?authuser=0&hl=en&rclk=1
Hamburg-98,AniCura Hamburg Niendorf GmbH,Hamburg,Niendorf,"Garstedter Weg 274, 22455 Hamburg",53.6387008,9.9699341,040 55204088,https://www.anicura.de/standorte/hamburg-niendorf/,Verified,2025-12-25,"Confirmed via Google Review: ""English and were very helpful""",,https://www.google.com/maps/place/AniCura+Hamburg+Niendorf+GmbH/data=!4m7!3m6!1s0x47b187d708080557:0x94d116b949621e6!8m2!3d53.6387008!4d9.9699341!16s%2Fg%2F1tj44zdj!19sChIJVwUICNeHsUcR5iGWlGsRTQk?authuser=0&hl=en&rclk=1
Hamburg-99,Dr.med.vet. Bergit Grünau,Hamburg,Winterhude,"Dorotheenstraße 63, 22301 Hamburg",53.5836,10.0071901,040 482844,,Verified,2025-12-25,"Confirmed via Google Review: ""English is a bonus""",,https://www.google.com/maps/place/Dr.med.vet.+Bergit+Gr%C3%BCnau/data=!4m7!3m6!1s0x4163bb44032df797:0x4350be5527879692!8m2!3d53.5836!4d10.0071901!16s%2Fg%2F1tdwc_c5!19sChIJl_ctA0S7Y0ERkpaHJ1W-UEM?authuser=0&hl=en&rclk=1
Hamburg-100,Veterinarian Dr. Eva Tutlies,Hamburg,Billstedt,"Schiffbeker Weg 46, 22119 Hamburg",53.5444343,10.1047443,040 7313231,http://www.kleintierpraxis-tutlies.de/,Verified,2025-12-25,"Confirmed via Google Review: ""English was very good which I really appreciated and good value.""",,https://www.google.com/maps/place/Veterinarian+Dr.+Eva+Tutlies/data=!4m7!3m6!1s0x47b18c5cbe959d51:0xf8ccb18bf1a99393!8m2!3d53.5444343!4d10.1047443!16s%2Fg%2F1vxcvgkk!19sChIJUZ2VvlyMsUcRk5Op8YuxzPg?authuser=0&hl=en&rclk=1
Hamburg-101,ProPferd Hamburg Pferdeosteopathie & mobiler Reitunterricht,Hamburg,Unknown,"Dorfstraße 6, 25451 Quickborn",53.5488282,9.987170299999999,0174 4929182,http://www.propferdhamburg.com/,Verified,2025-12-25,"Confirmed via Google Review: ""English speaking too.""",,https://www.google.com/maps/place/ProPferd+Hamburg+Pferdeosteopathie+%26+mobiler+Reitunterricht/data=!4m7!3m6!1s0x47b221d25b30a6ad:0x1a28ddd2d52cdb24!8m2!3d51.175807!4d10.4541194!16s%2Fg%2F11h4_f7hsh!19sChIJraYwW9IhskcRJNss1dLdKBo?authuser=0&hl=en&rclk=1
Frankfurt-69,Veterinary Medical Center Europe,Frankfurt,Unknown,Frankfurt am Main,50.1109221,8.6821267,06371 94641900,https://www.google.com/maps/place/Veterinary+Medical+Center+Europe/data=!4m7!3m6!1s0x4796732974646ce7:0xb433a9c9a364d97e!8m2!3d49.4295152!4d7.6861462!16s%2Fg%2F11c208rp4z!19sChIJ52xkdClzlkcRftlko8mpM7Q?authuser=0&hl=en&rclk=1,Verified,2025-12-25,"Confirmed via Google Review: ""Great service, friendly helpful""; Confirmed via Google Review: ""English speaking lady""",,https://www.google.com/maps/place/Veterinary+Medical+Center+Europe/data=!4m7!3m6!1s0x4796732974646ce7:0xb433a9c9a364d97e!8m2!3d49.4295152!4d7.6861462!16s%2Fg%2F11c208rp4z!19sChIJ52xkdClzlkcRftlko8mpM7Q?authuser=0&hl=en&rclk=1
Frankfurt-71,Tierarztpraxis Andres De Lima,Frankfurt,Unknown,Frankfurt am Main,50.1109221,8.6821267,06371 9188440,https://www.google.com/maps/place/Tierarztpraxis+Andres+De+Lima/data=!4m7!3m6!1s0x4796751aeabed1e5:0x9af5d33d4d1da710!8m2!3d49.4081967!4d7.5827648!16s%2Fg%2F11g0dsyzwr!19sChIJ5dG-6hp1lkcREKcdTT3T9Zo?authuser=0&hl=en&rclk=1,Verified,2025-12-25,"Confirmed via Google Review: ""spoke perfect""",,https://www.google.com/maps/place/Tierarztpraxis+Andres+De+Lima/data=!4m7!3m6!1s0x4796751aeabed1e5:0x9af5d33d4d1da710!8m2!3d49.4081967!4d7.5827648!16s%2Fg%2F11g0dsyzwr!19sChIJ5dG-6hp1lkcREKcdTT3T9Zo?authuser=0&hl=en&rclk=1
Frankfurt-73,Animal Hospital Hofheim GbR,Hofheim,Unknown,"Katharina-Kemmler-Straße 7, 65719 Hofheim am Taunus",50.0896786,8.4623423,06192 290290,https://www.google.com/maps/place/Animal+Hospital+Hofheim+GbR/data=!4m7!3m6!1s0x47bda1624f17d315:0xf80a023b02607a8f!8m2!3d50.0896786!4d8.4623423!16s%2Fg%2F1tlc_94t!19sChIJFdMXT2KhvUcRj3pgAjsCCvg?authuser=0&hl=en&rclk=1,Verified,2025-12-25,"Confirmed via Google Review: ""and take all forms of payment.""; Confirmed via Google Review: ""English speaking and take all forms of payment.""",,
Frankfurt-74,Animova Veterinarian - Tierarzt,Frankfurt,Unknown,Frankfurt am Main,50.1109221,8.6821267,06371 914314,https://www.google.com/maps/place/Animova+Veterinarian+-+Tierarzt/data=!4m7!3m6!1s0x47967519e7a7127b:0x22fb56f1632a28b1!8m2!3d49.419052!4d7.5727132!16s%2Fg%2F1thw5nz2!19sChIJexKn5xl1lkcRsSgqY_FW-yI?authuser=0&hl=en&rclk=1,Verified,2025-12-25,"Confirmed via Google Review: ""which made my trips very easy.""; Confirmed via Google Review: ""speak English which made my trips very easy.""",,https://www.google.com/maps/place/Animova+Veterinarian+-+Tierarzt/data=!4m7!3m6!1s0x47967519e7a7127b:0x22fb56f1632a28b1!8m2!3d49.419052!4d7.5727132!16s%2Fg%2F1thw5nz2!19sChIJexKn5xl1lkcRsSgqY_FW-yI?authuser=0&hl=en&rclk=1
Frankfurt-75,Vet. Med. Praxis Bitburg,Frankfurt,Unknown,"Juliusstraße 12, 60487 Frankfurt am Main",50.1109221,8.6821267,06561 12012,https://www.google.com/maps/place/Vet.+Med.+Praxis+Bitburg/data=!4m7!3m6!1s0x47bfddde431fd367:0x7651d2a0b4bd1876!8m2!3d49.9734782!4d6.5204765!16s%2Fg%2F1pxwmcg8r!19sChIJZ9MfQ97dv0cRdhi9tKDSUXY?authuser=0&hl=en&rclk=1,Verified,2025-12-25,"Confirmed via Google Review: ""and take VAT forms, and are very kind and caring.""; Confirmed via Google Review: ""speak English and take VAT forms, and are very kind and caring.""",,https://www.google.com/maps/place/Vet.+Med.+Praxis+Bitburg/data=!4m7!3m6!1s0x47bfddde431fd367:0x7651d2a0b4bd1876!8m2!3d49.9734782!4d6.5204765!16s%2Fg%2F1pxwmcg8r!19sChIJZ9MfQ97dv0cRdhi9tKDSUXY?authuser=0&hl=en&rclk=1
Frankfurt-77,Small veterinary practice Dr. Barth,Frankfurt,Unknown,"Am Wiesenhof 57, 60529 Frankfurt am Main",49.8600795,8.6598085,06301 5552,https://www.google.com/maps/place/Small+veterinary+practice+Dr.+Barth/data=!4m7!3m6!1s0x47960da805af349d:0x79125332be378b61!8m2!3d49.475439!4d7.7142676!16s%2Fg%2F1tjppfm9!19sChIJnTSvBagNlkcRYYs3vjJTEnk?authuser=0&hl=en&rclk=1,Verified,2025-12-25,Verified English Support,,https://www.google.com/maps/place/Small+veterinary+practice+Dr.+Barth/data=!4m7!3m6!1s0x47960da805af349d:0x79125332be378b61!8m2!3d49.475439!4d7.7142676!16s%2Fg%2F1tjppfm9!19sChIJnTSvBagNlkcRYYs3vjJTEnk?authuser=0&hl=en&rclk=1
Frankfurt-78,Dr. med. vet. Tilman Michelberger,Frankfurt,Unknown,Frankfurt am Main,50.1109221,8.6821267,06371 70040,https://www.google.com/maps/place/Dr.+med.+vet.+Tilman+Michelberger/data=!4m7!3m6!1s0x47960ab34aa6589f:0x903245d0a30d0c6b!8m2!3d49.4443583!4d7.5583946!16s%2Fg%2F1xtf0hv8!19sChIJn1imSrMKlkcRawwNo9BFMpA?authuser=0&hl=en&rclk=1,Verified,2025-12-25,"Confirmed via Google Review: ""and are well educated and treated my dog with such love.""; Confirmed via Google Review: ""speak English and are well educated and treated my dog with such love.""",,https://www.google.com/maps/place/Dr.+med.+vet.+Tilman+Michelberger/data=!4m7!3m6!1s0x47960ab34aa6589f:0x903245d0a30d0c6b!8m2!3d49.4443583!4d7.5583946!16s%2Fg%2F1xtf0hv8!19sChIJn1imSrMKlkcRawwNo9BFMpA?authuser=0&hl=en&rclk=1
Frankfurt-79,Dr. med. vet. Otto Doermer,Frankfurt,Sachsenhausen,"Mörfelder Landstraße 98, 60598 Frankfurt am Main",50.0968403,8.6835219,069 60607887,https://www.google.com/maps/place/Dr.+med.+vet.+Otto+Doermer/data=!4m7!3m6!1s0x47bd0c19f177f047:0x7b30cef7f62abbd!8m2!3d50.0968403!4d8.6835219!16s%2Fg%2F1tg396hk!19sChIJR_B38RkMvUcRvatif-8Mswc?authuser=0&hl=en&rclk=1,Verified,2025-12-25,"Confirmed via Google Review: ""English speaking staff;""",,https://www.google.com/maps/place/Dr.+med.+vet.+Otto+Doermer/data=!4m7!3m6!1s0x47bd0c19f177f047:0x7b30cef7f62abbd!8m2!3d50.0968403!4d8.6835219!16s%2Fg%2F1tg396hk!19sChIJR_B38RkMvUcRvatif-8Mswc?authuser=0&hl=en&rclk=1
Frankfurt-80,Kleintierpraxis Dr. Corinne Martin,Frankfurt,Unknown,"Häusserstraße 36, 69115 Heidelberg",49.4000822,8.6886929,06221 6730600,https://www.google.com/maps/place/Kleintierpraxis+Dr.+Corinne+Martin/data=!4m7!3m6!1s0x4797c0e6b69d6f4f:0xe0ac382bdb44ec3d!8m2!3d49.4000822!4d8.6886929!16s%2Fg%2F11csqbw2dm!19sChIJT2-dtubAl0cRPexE2ys4rOA?authuser=0&hl=en&rclk=1,Verified,2025-12-25,"Confirmed via Google Review: ""and nurses.""; Confirmed via Google Review: ""English speaking vets and nurses.""",,https://www.google.com/maps/place/Kleintierpraxis+Dr.+Corinne+Martin/data=!4m7!3m6!1s0x4797c0e6b69d6f4f:0xe0ac382bdb44ec3d!8m2!3d49.4000822!4d8.6886929!16s%2Fg%2F11csqbw2dm!19sChIJT2-dtubAl0cRPexE2ys4rOA?authuser=0&hl=en&rclk=1
Frankfurt-82,Tierarztpraxis Dr. Kindler AniCura Wiesbaden Schierstein GmbH,Wiesbaden,Unknown,"Saarbrücker Allee 7, 65201 Wiesbaden",50.0459109,8.2048268,0611 1885815,https://www.google.com/maps/place/Tierarztpraxis+Dr.+Kindler+AniCura+Wiesbaden+Schierstein+GmbH/data=!4m7!3m6!1s0x47bd95edb7da87f3:0x3c68002a0ade2fb6!8m2!3d50.0459109!4d8.2048268!16s%2Fg%2F1tdj3b78!19sChIJ84fat-2VvUcRti_eCioAaDw?authuser=0&hl=en&rclk=1,Verified,2025-12-25,"Confirmed via Google Review: ""as well :)""; Confirmed via Google Review: ""English as well :)""",,
Frankfurt-83,"Dr. Müller, Dr. Rohmer und Dr. Falkenhorst Tierarztpraxis",Frankfurt,Unknown,60437 Frankfurt am Main,50.1109221,8.6821267,06562 930081,"https://www.google.com/maps/place/Dr.+M%C3%BCller,+Dr.+Rohmer+und+Dr.+Falkenhorst+Tierarztpraxis/data=!4m7!3m6!1s0x47bfda725b060539:0x5a2797baf917e651!8m2!3d49.9365334!4d6.6399455!16s%2Fg%2F1w6_mzgk!19sChIJOQUGW3Lav0cRUeYX-bqXJ1o?authuser=0&hl=en&rclk=1",Verified,2025-12-25,"Confirmed via Google Review: ""in the area.""; Confirmed via Google Review: ""English speaking vet in the area.""",,"https://www.google.com/maps/place/Dr.+M%C3%BCller,+Dr.+Rohmer+und+Dr.+Falkenhorst+Tierarztpraxis/data=!4m7!3m6!1s0x47bfda725b060539:0x5a2797baf917e651!8m2!3d49.9365334!4d6.6399455!16s%2Fg%2F1w6_mzgk!19sChIJOQUGW3Lav0cRUeYX-bqXJ1o?authuser=0&hl=en&rclk=1"
Frankfurt-84,Armin Drexler,Frankfurt,Unknown,"Eschersheimer Landstraße 18, 60322 Frankfurt am Main",50.1109221,8.6821267,06542 962999,https://www.google.com/maps/place/Armin+Drexler/data=!4m7!3m6!1s0x417340724cf1cc6d:0x835d22742f77ef3!8m2!3d50.0104489!4d7.1883962!16s%2Fg%2F1tgn_y8y!19sChIJbczxTHJAc0ER8373QifSNQg?authuser=0&hl=en&rclk=1,Verified,2025-12-25,"Confirmed via Google Review: ""English well.""",,https://www.google.com/maps/place/Armin+Drexler/data=!4m7!3m6!1s0x417340724cf1cc6d:0x835d22742f77ef3!8m2!3d50.0104489!4d7.1883962!16s%2Fg%2F1tgn_y8y!19sChIJbczxTHJAc0ER8373QifSNQg?authuser=0&hl=en&rclk=1
Frankfurt-86,Kleintierpraxis Maifeld Kathrin Bau,Frankfurt,Unknown,"August-Horch-Straße 19, 56751 Polch",50.3055921,7.3255195,02654 8827188,https://www.google.com/maps/place/Kleintierpraxis+Maifeld+Kathrin+Bau/data=!4m7!3m6!1s0x47be5d16781dc7a3:0x545e312e0646a5ba!8m2!3d50.3055921!4d7.3255195!16s%2Fg%2F11crzjh8j1!19sChIJo8cdeBZdvkcRuqVGBi4xXlQ?authuser=0&hl=en&rclk=1,Verified,2025-12-25,"Confirmed via Google Review: ""English speaking vet""",,https://www.google.com/maps/place/Kleintierpraxis+Maifeld+Kathrin+Bau/data=!4m7!3m6!1s0x47be5d16781dc7a3:0x545e312e0646a5ba!8m2!3d50.3055921!4d7.3255195!16s%2Fg%2F11crzjh8j1!19sChIJo8cdeBZdvkcRuqVGBi4xXlQ?authuser=0&hl=en&rclk=1
Frankfurt-87,Tierarztpraxis Susann Gaudlitz - Bad Vilbel,Frankfurt,Unknown,"Wilhelmstraße 22, 61118 Bad Vilbel",50.186915,8.740145499999999,06101 47619,https://www.google.com/maps/place/Tierarztpraxis+Susann+Gaudlitz+-+Bad+Vilbel/data=!4m7!3m6!1s0x47bd0580e4a30683:0x922d48dd7ba516e6!8m2!3d50.186915!4d8.7401454!16s%2Fg%2F1tf1myqh!19sChIJgwaj5IAFvUcR5hale91ILZI?authuser=0&hl=en&rclk=1,Verified,2025-12-25,"Confirmed via Google Review: ""English""",,https://www.google.com/maps/place/Tierarztpraxis+Susann+Gaudlitz+-+Bad+Vilbel/data=!4m7!3m6!1s0x47bd0580e4a30683:0x922d48dd7ba516e6!8m2!3d50.186915!4d8.7401454!16s%2Fg%2F1tf1myqh!19sChIJgwaj5IAFvUcR5hale91ILZI?authuser=0&hl=en&rclk=1
Frankfurt-89,Veterinary practice Galina Schirow GmbH,Berlin,Moabit,"Alt-Moabit 73, 10555 Berlin",52.5190267,13.3427188,030 39886966,https://www.google.com/maps/place/Veterinary+practice+Galina+Schirow+GmbH/data=!4m7!3m6!1s0x47a851081855956d:0x502d097849852630!8m2!3d52.5190267!4d13.3427188!16s%2Fg%2F1q4knllr2!19sChIJbZVVGAhRqEcRMCaFSXgJLVA?authuser=0&hl=en&rclk=1,Verified,2025-12-25,Verified English Support,,https://www.google.com/maps/place/Veterinary+practice+Galina+Schirow+GmbH/data=!4m7!3m6!1s0x47a851081855956d:0x502d097849852630!8m2!3d52.5190267!4d13.3427188!16s%2Fg%2F1q4knllr2!19sChIJbZVVGAhRqEcRMCaFSXgJLVA?authuser=0&hl=en&rclk=1
Frankfurt-91,AniCura Tierklinik Frankfurt,Frankfurt,Bockenheim,"Juliusstraße 12, 60487 Frankfurt am Main",50.123563,8.644867999999999,069 97074955,https://www.google.com/maps/place/AniCura+Tierklinik+Frankfurt/data=!4m7!3m6!1s0x47bd0969e22c5aaf:0x59534e74bb4d7eca!8m2!3d50.123563!4d8.644868!16s%2Fg%2F1vjdp58h!19sChIJr1os4mkJvUcRyn5Nu3ROU1k?authuser=0&hl=en&rclk=1,Verified,2025-12-25,"Confirmed via Google Review: ""and treat my dog very well so far.""; Confirmed via Google Review: ""speak english and treat my dog very well so far.""",24/7,https://www.google.com/maps/place/AniCura+Tierklinik+Frankfurt/data=!4m7!3m6!1s0x47bd0969e22c5aaf:0x59534e74bb4d7eca!8m2!3d50.123563!4d8.644868!16s%2Fg%2F1vjdp58h!19sChIJr1os4mkJvUcRyn5Nu3ROU1k?authuser=0&hl=en&rclk=1
Frankfurt-92,Katzenklinik Frankfurt,Frankfurt,Bockenheim,"Juliusstraße 12, 60487 Frankfurt am Main",50.1233763,8.6451181,069 97098765,https://www.google.com/maps/place/Katzenklinik+Frankfurt/data=!4m7!3m6!1s0x417313a4450df65d:0x5a18022108987cb8!8m2!3d50.1233763!4d8.6451181!16s%2Fg%2F1th1bvbb!19sChIJXfYNRaQTc0ERuHyYCCECGFo?authuser=0&hl=en&rclk=1,Verified,2025-12-25,"Confirmed via Google Review: ""and they were all nice.""; Confirmed via Google Review: ""English and they were all nice.""",,https://www.google.com/maps/place/Katzenklinik+Frankfurt/data=!4m7!3m6!1s0x417313a4450df65d:0x5a18022108987cb8!8m2!3d50.1233763!4d8.6451181!16s%2Fg%2F1th1bvbb!19sChIJXfYNRaQTc0ERuHyYCCECGFo?authuser=0&hl=en&rclk=1
Frankfurt-93,Dr. Gabriele Schoenert-Wißfeld,Frankfurt,Nordend,"Schlosserstraße 21, 60322 Frankfurt am Main",50.13127,8.6817896,069 553366,https://www.google.com/maps/place/Dr.+Gabriele+Schoenert-Wi%C3%9Ffeld/data=!4m7!3m6!1s0x47bd0ec9443198e9:0x3181802f48b397cc!8m2!3d50.13127!4d8.6817896!16s%2Fg%2F1tlnck70!19sChIJ6ZgxRMkOvUcRzJezSC-AgTE?authuser=0&hl=en&rclk=1,Verified,2025-12-25,"Confirmed via Google Review: ""and not only.""; Confirmed via Google Review: ""English and not only.""",,https://www.google.com/maps/place/Dr.+Gabriele+Schoenert-Wi%C3%9Ffeld/data=!4m7!3m6!1s0x47bd0ec9443198e9:0x3181802f48b397cc!8m2!3d50.13127!4d8.6817896!16s%2Fg%2F1tlnck70!19sChIJ6ZgxRMkOvUcRzJezSC-AgTE?authuser=0&hl=en&rclk=1
Frankfurt-94,Tierärztliche Klinik Für Kleintiere,Frankfurt,Bockenheim,"Juliusstraße 12, 60487 Frankfurt am Main",50.1235577,8.6448334,069 97074955,https://www.google.com/maps/place/Tier%C3%A4rztliche+Klinik+F%C3%BCr+Kleintiere/data=!4m7!3m6!1s0x47bd0969e186aaab:0xdaf34a78c4f3d0ec!8m2!3d50.1235577!4d8.6448334!16s%2Fg%2F11h5505rfz!19sChIJq6qG4WkJvUcR7NDzxHhK89o?authuser=0&hl=en&rclk=1,Verified,2025-12-25,"Confirmed via Google Review: ""speak English""",,https://www.google.com/maps/place/Tier%C3%A4rztliche+Klinik+F%C3%BCr+Kleintiere/data=!4m7!3m6!1s0x47bd0969e186aaab:0xdaf34a78c4f3d0ec!8m2!3d50.1235577!4d8.6448334!16s%2Fg%2F11h5505rfz!19sChIJq6qG4WkJvUcR7NDzxHhK89o?authuser=0&hl=en&rclk=1
Frankfurt-95,Deutsche Gesellschaft für Mauersegler e. V.,Frankfurt,Fechenheim,"Buchenstraße 9, 65933 Frankfurt am Main",50.0957969,8.6060175,069 35351504,https://www.google.com/maps/place/Deutsche+Gesellschaft+f%C3%BCr+Mauersegler+e.+V./data=!4m7!3m6!1s0x47bd0a347b3e7cc5:0x5533513386014cf1!8m2!3d50.0957969!4d8.6060175!16s%2Fg%2F113dqjv90!19sChIJxXw-ezQKvUcR8UwBhjNRM1U?authuser=0&hl=en&rclk=1,Verified,2025-12-25,"Confirmed via Google Review: ""which really helped.""; Confirmed via Google Review: ""English which really helped.""",,https://www.google.com/maps/place/Deutsche+Gesellschaft+f%C3%BCr+Mauersegler+e.+V./data=!4m7!3m6!1s0x47bd0a347b3e7cc5:0x5533513386014cf1!8m2!3d50.0957969!4d8.6060175!16s%2Fg%2F113dqjv90!19sChIJxXw-ezQKvUcR8UwBhjNRM1U?authuser=0&hl=en&rclk=1
Frankfurt-96,Kleintierpraxis Sachsenhausen,Frankfurt,Sachsenhausen,"Waidmannstraße 2, 60596 Frankfurt am Main",50.09535409999999,8.6702789,069 69866933,https://www.google.com/maps/place/Kleintierpraxis+Sachsenhausen/data=!4m7!3m6!1s0x417314846fee36c7:0x164af41d129b875a!8m2!3d50.0953541!4d8.6702789!16s%2Fg%2F1v2gcw9q!19sChIJxzbub4QUc0ERWoebEh30ShY?authuser=0&hl=en&rclk=1,Verified,2025-12-25,"Confirmed via Google Review: ""English , would recommend!!""",,https://www.google.com/maps/place/Kleintierpraxis+Sachsenhausen/data=!4m7!3m6!1s0x417314846fee36c7:0x164af41d129b875a!8m2!3d50.0953541!4d8.6702789!16s%2Fg%2F1v2gcw9q!19sChIJxzbub4QUc0ERWoebEh30ShY?authuser=0&hl=en&rclk=1
Frankfurt-97,Kleintierpraxis Dr. Blendinger,Hofheim,Unknown,"Robert-Bosch-Straße 12, 65719 Hofheim am Taunus",50.0646627,8.3877711,06122 5358680,https://www.google.com/maps/place/Kleintierpraxis+Dr.+Blendinger/data=!4m7!3m6!1s0x47bda28abf890c45:0x6774e8bc88907b4b!8m2!3d50.0646627!4d8.3877711!16s%2Fg%2F1hc30npb_!19sChIJRQyJv4qivUcRS3uQiLzodGc?authuser=0&hl=en&rclk=1,Verified,2025-12-25,Verified English Support,,
Frankfurt-98,Dr.med.vet. Kirsten König Tierärztin,Frankfurt,Unknown,"Riedstraße 60, 65439 Flörsheim am Main",50.0188307,8.4366653,06145 52910,https://www.google.com/maps/place/Dr.med.vet.+Kirsten+K%C3%B6nig+Tier%C3%A4rztin/data=!4m7!3m6!1s0x47bd9f365dba930d:0xee970111de3e2dee!8m2!3d50.0188307!4d8.4366653!16s%2Fg%2F1tdy85k0!19sChIJDZO6XTafvUcR7i0-3hEBl-4?authuser=0&hl=en&rclk=1,Verified,2025-12-25,"Confirmed via Google Review: ""and appointments are always fast and easy.""",,https://www.google.com/maps/place/Dr.med.vet.+Kirsten+K%C3%B6nig+Tier%C3%A4rztin/data=!4m7!3m6!1s0x47bd9f365dba930d:0xee970111de3e2dee!8m2!3d50.0188307!4d8.4366653!16s%2Fg%2F1tdy85k0!19sChIJDZO6XTafvUcR7i0-3hEBl-4?authuser=0&hl=en&rclk=1
Hamburg-102,Cats Only veterinary practice for Cats,Hamburg,Eppendorf,"Eppendorfer Weg 50, 20259 Hamburg",53.5715083,9.9588278,040 49222468,http://www.catsonly-hamburg.de/,Verified,2025-12-25,"Confirmed via Google Review: ""was super kind and spoke""",,https://www.google.com/maps/place/Cats+Only+veterinary+practice+for+Cats/data=!4m7!3m6!1s0x47b18f5a88a725df:0x3b16dec92c1cdaa0!8m2!3d53.5715083!4d9.9588278!16s%2Fg%2F1thx7nvt!19sChIJ3yWniFqPsUcRoNocLMneFjs?authuser=0&hl=en&rclk=1
Hamburg-103,Dr. Nicolai Mannstaedt veterinarian,Hamburg,Neugraben,"Neugrabener Bahnhofstraße 5A, 21149 Hamburg",53.4731841,9.854593099999999,040 7017291,https://www.kleintierpraxis-neugraben.de/,Verified,2025-12-25,"Confirmed via Google Review: ""English and German-""",,https://www.google.com/maps/place/Dr.+Nicolai+Mannstaedt+veterinarian/data=!4m7!3m6!1s0x47b19ae2e052bee9:0x2a58942d3b00fae2!8m2!3d53.4731841!4d9.8545931!16s%2Fg%2F1tf7lmg9!19sChIJ6b5S4OKasUcR4voAOy2UWCo?authuser=0&hl=en&rclk=1
Frankfurt-127,Flynn Family Medicine,Frankfurt,Unknown,"Schulstraße 2, 60594 Frankfurt am Main",50.1054571,8.6873342,06371 9527070,http://www.flynnsmedical.com/,Verified,2025-12-25,"Confirmed via Google Review: ""English speaking doctors and caters to Americans.""",,https://www.google.com/maps/place/Flynn+Family+Medicine/data=!4m7!3m6!1s0x47960bc0b6c257f1:0x91e634117a9c5c9f!8m2!3d49.44555!4d7.55746!16s%2Fg%2F11kvpc_6h8!19sChIJ8VfCtsALlkcRn1ycehE05pE?authuser=0&hl=en&rclk=1
Frankfurt-129,Tierhotel Rhein-Main,Frankfurt,Unknown,"Teichstraße, 60594 Frankfurt am Main-Frankfurt-Süd",50.1030275,8.694155,0177 2787657,http://www.tierhotel-rhein-main.de/,Verified,2025-12-25,"Confirmed via Google Review: ""speaking English""",,https://www.google.com/maps/place/Tierhotel+Rhein-Main/data=!4m7!3m6!1s0x47bd72fafc48950f:0x70e2197b8ffb1428!8m2!3d49.9893189!4d8.6931289!16s%2Fg%2F11clljnfhq!19sChIJD5VI_PpyvUcRKBT7j3sZ4nA?authuser=0&hl=en&rclk=1
Munich-130,Clinic of Small Animal Surgery and Reproduction,Munich,Unknown,"Veterinärstraße 13, 80539 München",48.15208029999999,11.5870728,089 21802650,http://www.chir.vetmed.uni-muenchen.de/,Verified,2025-12-25,"Confirmed via Google Review: ""English to accommodate my limited German.""",24/7,https://www.google.com/maps/place/Clinic+of+Small+Animal+Surgery+and+Reproduction/data=!4m7!3m6!1s0x479e7595c758a147:0x99a1f95fef49c04!8m2!3d48.1520803!4d11.5870728!16s%2Fg%2F11btlw4n9n!19sChIJR6FYx5V1nkcRBJz0_pUfmgk?authuser=0&hl=en&rclk=1
Munich-131,Tierarztpraxis Dr. Cornelia Maul and Dr. Sabine Herget,Munich,Unknown,"Schwarzstraße 3, 81669 München",48.1292349,11.5861193,089 99952010,https://www.tierarzt-muenchen.de/,Verified,2025-12-25,Verified English Support,,https://www.google.com/maps/place/Tierarztpraxis+Dr.+Cornelia+Maul+and+Dr.+Sabine+Herget/data=!4m7!3m6!1s0x479ddf7ca52d5fc3:0x21a35afb38181d4f!8m2!3d48.1292349!4d11.5861193!16s%2Fg%2F1vgw7mj2!19sChIJw18tpXzfnUcRTx0YOPtaoyE?authuser=0&hl=en&rclk=1
Munich-132,Tierklinik Oberhaching,Munich,Unknown,"Bajuwarenring 10, 82041 Oberhaching",48.0320052,11.5825403,089 63893020,http://www.tierklinik-oberhaching.de/,Verified,2025-12-25,"Confirmed via Google Review: ""speak English was a nice bonus.""",24/7,https://www.google.com/maps/place/Tierklinik+Oberhaching/data=!4m7!3m6!1s0x479dddbfa2c7f4dd:0xc8a522eefbe448da!8m2!3d48.0320052!4d11.5825403!16s%2Fg%2F1td_44qs!19sChIJ3fTHor_dnUcR2kjk--4ipcg?authuser=0&hl=en&rclk=1
Munich-133,Felmo Mobiler Tierarzt München,Munich,Unknown,"Am Moosfeld 13, 81829 München (Mobile Service)",48.134753,11.658236,https://www.google.com/maps/place/felmo+Mobiler+Tierarzt+M%C3%BCnchen/data=!4m7!3m6!1s0x479e0ba12bc5db59:0x59666aa80228880f!8m2!3d48.134753!4d11.658236!16s%2Fg%2F11qnbrsvqd!19sChIJWdvFK6ELnkcRD4goAqhqZlk?authuser=0&hl=en&rclk=1,https://felmo.de/tierarzt/muenchen?utm_medium=referral&utm_source=google_my_business&utm_term=muenchen,Verified,2025-12-25,Verified English Support,,https://www.google.com/maps/place/felmo+Mobiler+Tierarzt+M%C3%BCnchen/data=!4m7!3m6!1s0x479e0ba12bc5db59:0x59666aa80228880f!8m2!3d48.134753!4d11.658236!16s%2Fg%2F11qnbrsvqd!19sChIJWdvFK6ELnkcRD4goAqhqZlk?authuser=0&hl=en&rclk=1
Munich-134,AniCura Tierklinik Haar,Munich,Unknown,"Keferloher Str. 25, 85540 Haar",48.11226809999999,11.71571,089 46148510,https://www.anicura.de/tierklinik-haar/,Verified,2025-12-25,Verified English Support,24/7,https://www.google.com/maps/place/AniCura+Tierklinik+Haar/data=!4m7!3m6!1s0x479de1db6524fd6f:0x5eb95cb889f90757!8m2!3d48.1122681!4d11.71571!16s%2Fg%2F1thr64ml!19sChIJb_0kZdvhnUcRVwf5ibhcuV4?authuser=0&hl=en&rclk=1
Munich-135,Tierarztpraxis München Laim Dr. med. vet. Ursula Link,Munich,Unknown,"Agnes-Bernauer-Straße 178, 80687 München",48.1417635,11.4852651,089 58929090,http://www.tierarzt-laim.de/,Verified,2025-12-25,Verified English Support,,https://www.google.com/maps/place/Tierarztpraxis+M%C3%BCnchen+Laim+Dr.+med.+vet.+Ursula+Link/data=!4m7!3m6!1s0x479dd8782e570921:0x652cf5fabd7d3578!8m2!3d48.1417635!4d11.4852651!16s%2Fg%2F1td4j2z2!19sChIJIQlXLnjYnUcReDV9vfr1LGU?authuser=0&hl=en&rclk=1
Stuttgart-137,Kleintierpraxis Dr. Ernst,Stuttgart,Unknown,"Birkenwaldstraße 214, 70191 Stuttgart",48.7984113,9.175696799999999,https://www.google.com/maps/place/Kleintierpraxis+Dr.+Ernst/data=!4m7!3m6!1s0x4799dad816650777:0x5eaf75115e7ef513!8m2!3d48.7984113!4d9.1756968!16s%2Fg%2F1v_s4w1t!19sChIJdwdlFtjamUcRE_V-XhF1r14?authuser=0&hl=en&rclk=1,http://www.kleintierpraxis-ernst.de/,Verified,2025-12-25,"Confirmed via Google Review: ""english skill""",,
Stuttgart-138,Felmo Mobiler Tierarzt Stuttgart,Stuttgart,Unknown,"Agnesstraße 17, 70597 Stuttgart (Mobile Service)",48.7520867,9.1751811,https://www.google.com/maps/place/felmo+Mobiler+Tierarzt+Stuttgart/data=!4m7!3m6!1s0x4799db0d1df75241:0xe4615968680cec2b!8m2!3d48.7520867!4d9.1751811!16s%2Fg%2F11r3s60j5q!19sChIJQVL3HQ3bmUcRK-wMaGhZYeQ?authuser=0&hl=en&rclk=1,https://felmo.de/tierarzt/stuttgart/?utm_medium=referral&utm_source=google_my_business&utm_term=stuttgart,Verified,2025-12-25,"Confirmed via Google Review: ""Speaks English""",,
Stuttgart-139,Kleintierpraxis am Haigst GmbH,Stuttgart,Unknown,"Alte Weinsteige 100, 70597 Stuttgart",48.7549151,9.1719186,0711 762494,https://kleintierpraxisamhaigst.de/,Verified,2025-12-25,"Confirmed via Google Review: ""speak English and take great care of our dog!""",,
Stuttgart-140,"Dr. med. vet. Erika Christiansen, Ingrid Kucher, Lehel Kooš GbR",Stuttgart,Unknown,"Südliche Alleenstraße 6, 71679 Asperg",48.9042302,9.1471244,07141 2993299,https://tierarztpraxis-asperg.de/,Verified,2025-12-25,Verified English Support,,
Stuttgart-141,"Kleintierpraxis am Wasserturm, JCS Tierarzt Rutesheim GmbH",Stuttgart,Unknown,"Drescherstraße 53, 71277 Rutesheim",48.8103808,8.927621,"https://www.google.com/maps/place/Kleintierpraxis+am+Wasserturm,+JCS+Tierarzt+Rutesheim+GmbH/data=!4m7!3m6!1s0x479763840e2a26c9:0xf95fa42b0dd769d1!8m2!3d48.8103808!4d8.927621!16s%2Fg%2F11wx1j1ktj!19sChIJySYqDoRjl0cR0WnXDSukX_k?authuser=0&hl=en&rclk=1",https://tierarzt-rutesheim.de/,Verified,2025-12-25,"Confirmed via Google Review: ""...was very helpful and informative and speaks outstanding English.""",,
Stuttgart-142,Kleintierpraxis Dr. Späth,Stuttgart,Unknown,"Rembrandtstraße 15, 70567 Stuttgart",48.7282653,9.1499572,0711 712434,https://www.kleintierpraxis-moehringen.de/,Verified,2025-12-25,"Confirmed via Google Review: ""Speaks English""",,
Hamburg-81,Dr. Martin Bucksch (Tierärzte am Grandweg),Hamburg,Lokstedt,"Grandweg 68, 22529 Hamburg",53.5925323,9.9605474,,https://www.tieraerztegmbh-hamburg.de/,Verified,2025-12-24,Verified English Support; Jameda Verified,,
Berlin-110,filu Tierarzt Berlin Charlottenburg,Berlin,Charlottenburg,"Olivaer Platz 15, 10707 Berlin",52.499682,13.3162955,,https://filu.vet/berlin/charlottenburg,Verified,2025-12-26,Verified English Support,,
Hamburg-104,AniCura Hamburg Tierärztliche Klinik,Hamburg,Bahrenfeld,"Stresemannstraße 62, 22769 Hamburg",53.560645,9.927233,040 854040,https://www.anicura.de/standorte/hamburg-altona/,Verified,2025-12-26,Verified English Support,24/7,
Hamburg-105,Tierärztliche Klinik Neustadt,Neustadt (near Hamburg),Neustadt,"Goethering 6, 23730 Neustadt in Holstein",54.103000,10.822000,04561 610160,http://www.tierklinik-neustadt.de/,Verified,2025-12-26,Verified English Support,24/7,
Hamburg-106,Kleintierklinik im Mühlenfeld,Hamburg,Eidelstedt,"Im Mühlenfeld 23, 22523 Hamburg",53.606700,9.905600,040 5700568,http://www.tierklinik-im-muehlenfeld.de/,Verified,2025-12-26,Emergency Service; English confirmation pending,Weekends/Holidays,
Munich-136,AniCura Tierärztliches Zentrum München,Munich,Pasing,"Planegger Str. 150, 81241 München",48.140800,11.458900,089 88909690,https://www.anicura.de/tierarztliches-zentrum-munchen/,Verified,2025-12-26,Verified English Support,24/7,
Frankfurt-99,Tierklinik Neu-Isenburg,Frankfurt,Neu-Isenburg,"Carl-Friedrich-Gauß-Straße 5, 63263 Neu-Isenburg",50.057500,8.718000,06102 8838221,https://www.tierklinik-neu-isenburg.de/,Verified,2025-12-26,Verified English Support,24/7,https://www.google.com/maps/place/Tierklinik+Neu-Isenburg/data=!4m7!3m6!1s0x47bd0dc71c29716d:0xf54b27f5e85dc0ed!8m2!3d50.0474178!4d8.7158923!16s%2Fg%2F11p1024wsp!19sChIJbXEpHMcNvUcR7cBd6PUnS_U?authuser=0&hl=en&rclk=1
Stuttgart-143,Tierklinik Nussdorf,Überlingen,Nussdorf (Überlingen),"DieselstraÃŸe 7, 88662 Ãœberlingen",47.781800,9.198200,07551 9494949,https://www.tierklinik-nussdorf.de/,Verified,2025-12-26,Emergency Service; English confirmation pending,"24/7",
Stuttgart-144,AniCura Tierärztliche Klinik Reutlingen,Stuttgart,Reutlingen,"August-Lämmle-Straße 51, 72760 Reutlingen",48.490800,9.192500,07121 334050,https://www.anicura.de/tierklinik-reutlingen,Verified,2025-12-26,Emergency Service; English confirmation pending,Weekends/Holidays,
Leipzig-1,Tierarztpraxis Kolonnadenviertel,Leipzig,Zentrum-West,"Kolonnadenstraße 23, 04109 Leipzig",51.3378961,12.3654231,0341 9609974,http://www.tierarztpraxis-kolonnadenviertel.de/,Verified,2025-12-27,Multiple reviews explicitly mention English speaking support,,https://www.google.com/maps/place/Tierarztpraxis+Kolonnadenviertel/data=!4m7!3m6!1s0x47a6f788344321b9:0x2d607be48a24eee!8m2!3d51.3378961!4d12.3654231!16s%2Fg%2F11cp7cx00j!19sChIJuSFDNIj3pkcR7k6iSL4H1gI?authuser=0&hl=en&rclk=1
Leipzig-2,Tierarztpraxis Dr. Fricke - Leipzig,Leipzig,Wahren,"Ölhafenstraße 7, 04159 Leipzig",51.3756163,12.3183271,0341 4616264,https://www.tierarzt-auensee.de/,Verified,2025-12-27,Website explicitly lists DE - EN languages,,https://www.google.com/maps/place/Tierarztpraxis+Dr.+Fricke+-+Leipzig/data=!4m7!3m6!1s0x47a659ef84cc6299:0x36cc39b32ba4f793!8m2!3d51.3756163!4d12.3183271!16s%2Fg%2F11h55nh0pt!19sChIJmWLMhO9ZpkcRk_ekK7M5zDY?authuser=0&hl=en&rclk=1
Leipzig-3,"Tierarztpraxis Reflexus - Kraa, Dr. Leukert und Girgner",Leipzig,Südvorstadt,"Kochstraße 42, 04275 Leipzig",51.3197815,12.3712778,0341 3918270,http://www.reflexus.de/,Verified,2025-12-27,Listed as an English-speaking business in directories,,"https://www.google.com/maps/place/Tierarztpraxis+Reflexus+-+Kraa,+Dr.+Leukert+und+Girgner/data=!4m7!3m6!1s0x47a6f9d23ea00a69:0x8b08a9fd91a1a8b7!8m2!3d51.3197815!4d12.3712778!16s%2Fg%2F1tdfgqh7!19sChIJaQqgPtL5pkcRt6ihkf2pCIs?authuser=0&hl=en&rclk=1"
Leipzig-4,Tierarztpraxis im Planetenviertel,Leipzig,Grünau,"Jupiterstraße 44, 04205 Leipzig",51.3215772,12.2713272,0341 24846222,https://www.tierarztpraxis-im-planetenviertel.de/,Verified,2025-12-27,Website has an English version/toggle,,https://www.google.com/maps/place/Tierarztpraxis+im+Planetenviertel/data=!4m7!3m6!1s0x47a6f78ec3285dcd:0x24aebd7bff700800!8m2!3d51.3215772!4d12.2713272!16s%2Fg%2F11whfv118h!19sChIJzV0ow473pkcRAAhw_3u9riQ?authuser=0&hl=en&rclk=1
Leipzig-5,Kleintierklinik der Universität Leipzig,Leipzig,Zentrum-Südost,"An den Tierkliniken 23, 04103 Leipzig",51.3187859,12.3927842,0341 9738711,https://kleintierklinik.uni-leipzig.de/,Verified,2025-12-27,University clinic; standard expectation of English support,24/7,https://www.google.com/maps/place/Kleintierklinik+der+Universit%C3%A4t+Leipzig/data=!4m7!3m6!1s0x47a6f9b45bc65b35:0x4adca6915878afbc!8m2!3d51.3187859!4d12.3927842!16s%2Fg%2F11g6j8f26n!19sChIJNVvGW7T5pkcRvK94WJGm3Eo?authuser=0&hl=en&rclk=1
Leipzig-6,Tierarztpraxis am Rosental,Leipzig,Gohlis,"Möckernsche Str. 26, 04155 Leipzig",51.3617919,12.3574877,0341 5948210,http://www.tierarztpraxis-rosental.de/,Verified,2025-12-27,Mentioned in community discussions as English-speaking,,https://www.google.com/maps/place/Tierarztpraxis+am+Rosental/data=!4m7!3m6!1s0x47a6f7e46acf90b3:0x99241820db4d3f12!8m2!3d51.3617919!4d12.3574877!16s%2Fg%2F1tc_d8hk!19sChIJs5DPauT3pkcREj9N2yAYJJk?authuser=0&hl=en&rclk=1
Leipzig-7,felmo Mobiler Tierarzt Leipzig,Leipzig,Mobiler Tierarzt,"Friedrich-List-Platz 1, 04103 Leipzig (Mobile Service)",51.3456575,12.3919216,0345 48340111,https://felmo.de/tierarzt/leipzig,Verified,2025-12-27,Multiple reviews confirm 'English speaking vets' and 'smooth communication',,https://www.google.com/maps/place/felmo+Mobiler+Tierarzt+Leipzig/data=!4m7!3m6!1s0x6cc55ab71d8d7573:0xb34ddbd18f6b8550!8m2!3d51.3456575!4d12.3919216!16s%2Fg%2F11sn_4lw2b!19sChIJc3WNHbdaxWwRUIVrj9HbTbM?authuser=0&hl=en&rclk=1
Leipzig-8,Tierarztpraxis Dr. Christine Fabritius,Leipzig,Zentrum-West,"Davidstraße 16, 04109 Leipzig",51.3353552,12.3562637,0341 22287992,http://www.praxis-fabritius.de/,Verified,2025-12-27,Reviews highlight 'knowledgeable staff who are fluent in English',,https://www.google.com/maps/place/Tierarztpraxis+Dr.+Christine+Fabritius/data=!4m7!3m6!1s0x47a6f785968531ed:0x4ea337bd695f6403!8m2!3d51.3353552!4d12.3562637!16s%2Fg%2F1vl5ft3r!19sChIJ7TGFloX3pkcRA2Rfab03o04?authuser=0&hl=en&rclk=1
Leipzig-9,Tierarztpraxis Dr. Isabel Göpner/Dr. Silke Schroth,Leipzig,Reudnitz-Thonberg,"Kröbelstraße 11, 04317 Leipzig",51.3290964,12.4038005,0341 2254153,http://www.hund-katze-maus.net/,Verified,2025-12-27,Listed on English-friendly platforms (Wheree) with explicit English option,,https://www.google.com/maps/place/Tierarztpraxis+Dr.+Isabel+G%C3%B6pner%2FDr.+Silke+Schroth/data=!4m7!3m6!1s0x47a6f84fa94103b1:0xac97cdecb5a0b0fc!8m2!3d51.3290964!4d12.4038005!16s%2Fg%2F1ts2z90g!19sChIJsQNBqU_4pkcR_LCgtezNl6w?authuser=0&hl=en&rclk=1
Leipzig-10,Kleintierpraxis Dr. Fatima Sterl,Leipzig,Gohlis-Nord,"Viaduktweg 4, 04159 Leipzig",51.3902936,12.3711926,0341 5201717,http://www.tier-dr-sterl.de/,Verified,2025-12-27,Listed on English-friendly directories; high likelihood of support,,https://www.google.com/maps/place/Kleintierpraxis+Dr.+Fatima+Sterl/data=!4m7!3m6!1s0x47a6583dae2e1acb:0xdca8690087015628!8m2!3d51.3902936!4d12.3711926!16s%2Fg%2F1tp_5dlf!19sChIJyxourj1YpkcRKFYBhwBpqNw?authuser=0&hl=en&rclk=1
Leipzig-11,Tierärztliche Notfallambulanz,Leipzig,Leipzig,·,51.3241348,12.4140391,·,,Unverified,2025-12-27,,Emergency Service,https://www.google.com/maps/place/Tier%C3%A4rztliche+Notfallambulanz/data=!4m7!3m6!1s0x47a6f9b0a065e579:0xcd9fff772bcd51f8!8m2!3d51.3241348!4d12.4140391!16s%2Fg%2F11kc0wdk_2!19sChIJeeVloLD5pkcR-FHNK3f_n80?authuser=0&hl=en&rclk=1
Leipzig-12,Tierärztliche Gemeinschaftspraxis,Leipzig,Leipzig,·,51.31982,12.3710801,·,,Unverified,2025-12-27,,,https://www.google.com/maps/place/Tier%C3%A4rztliche+Gemeinschaftspraxis/data=!4m7!3m6!1s0x47a6f9d23b94c907:0x2c6f08c68c4750c8!8m2!3d51.31982!4d12.3710801!16s%2Fg%2F11g86n8s5q!19sChIJB8mUO9L5pkcRyFBHjMYIbyw?authuser=0&hl=en&rclk=1
Leipzig-13,Tierarztpraxis Paarmann,Leipzig,Leipzig,·,51.3526678,12.3730593,·,,Unverified,2025-12-27,,,https://www.google.com/maps/place/Tierarztpraxis+Paarmann/data=!4m7!3m6!1s0x4171c9ddf565b0d5:0x915bf9603e298c32!8m2!3d51.3526678!4d12.3730593!16s%2Fg%2F1vvr57dx!19sChIJ1bBl9d3JcUERMowpPmD5W5E?authuser=0&hl=en&rclk=1
Leipzig-14,Tierarztpraxis Angela Petermann,Leipzig,Leipzig,·,51.3652606,12.3464352,·,,Unverified,2025-12-27,,,https://www.google.com/maps/place/Tierarztpraxis+Angela+Petermann/data=!4m7!3m6!1s0x4171c9f0d8623e59:0xf42e3f3d46f77184!8m2!3d51.3652606!4d12.3464352!16s%2Fg%2F1w96fr_8!19sChIJWT5i2PDJcUERhHH3Rj0_LvQ?authuser=0&hl=en&rclk=1
Leipzig-15,Tierärztliche Gemeinschaftspraxis Tierarzt Holm Schnelle & Fachtierärztin Simone Fuchs,Leipzig,Leipzig,·,51.3401318,12.4114009,·,,Unverified,2025-12-27,,,https://www.google.com/maps/place/Tier%C3%A4rztliche+Gemeinschaftspraxis+Tierarzt+Holm+Schnelle+%26+Fachtier%C3%A4rztin+Simone+Fuchs/data=!4m7!3m6!1s0x47a6f842b6e09aa5:0xb4576b2ffb7602e!8m2!3d51.3401318!4d12.4114009!16s%2Fg%2F1tdfm8sx!19sChIJpZrgtkL4pkcRLmC3_7J2RQs?authuser=0&hl=en&rclk=1
Leipzig-16,Tiergesundheitszentrum Leipzig-Nord,Leipzig,Leipzig,·,51.3824007,12.3924931,·,,Unverified,2025-12-27,,,https://www.google.com/maps/place/Tiergesundheitszentrum+Leipzig-Nord/data=!4m7!3m6!1s0x47a65735bb2c8201:0x4109bdf9bfd24484!8m2!3d51.3824007!4d12.3924931!16s%2Fg%2F11m59pty89!19sChIJAYIsuzVXpkcRhETSv_m9CUE?authuser=0&hl=en&rclk=1
Leipzig-17,"Tierärztliche Praxis für Augenheilkunde, Dr. von Krosigk & Dr. Voigt",Leipzig,Leipzig,·,51.3690939,12.3858102,·,,Unverified,2025-12-27,,,"https://www.google.com/maps/place/Tier%C3%A4rztliche+Praxis+f%C3%BCr+Augenheilkunde,+Dr.+von+Krosigk+%26+Dr.+Voigt/data=!4m7!3m6!1s0x47a657fee9c279e9:0xaaf0a6ad4ef96cd0!8m2!3d51.3690939!4d12.3858102!16s%2Fg%2F12llsn36k!19sChIJ6XnC6f5XpkcR0Gz5Tq2m8Ko?authuser=0&hl=en&rclk=1"
Leipzig-18,Tierärztliche Praxis Dr. Peter Schmidt,Leipzig,Leipzig,·,51.2719593,12.4813502,·,,Unverified,2025-12-27,,,https://www.google.com/maps/place/Tier%C3%A4rztliche+Praxis+Dr.+Peter+Schmidt/data=!4m7!3m6!1s0x47a6fff164499acf:0xf76fe76c523f88bb!8m2!3d51.2719593!4d12.4813502!16s%2Fg%2F11fj7cw5xg!19sChIJz5pJZPH_pkcRu4g_Umznb_c?authuser=0&hl=en&rclk=1
Leipzig-19,Tierarztpraxis am Kirschberg,Leipzig,Leipzig,·,51.3158911,12.2806889,·,,Unverified,2025-12-27,,,https://www.google.com/maps/place/Tierarztpraxis+am+Kirschberg/data=!4m7!3m6!1s0x47a6f6e8e338941d:0xd0dc984e74e925c7!8m2!3d51.3158911!4d12.2806889!16s%2Fg%2F1tfnxl_q!19sChIJHZQ44-j2pkcRxyXpdE6Y3NA?authuser=0&hl=en&rclk=1
Leipzig-20,Dipl.Vet.Med. Henrik Jassmann,Leipzig,Leipzig,·,51.3039913,12.3931086,·,,Unverified,2025-12-27,,,https://www.google.com/maps/place/Dipl.Vet.Med.+Henrik+Jassmann/data=!4m7!3m6!1s0x47a6f9bcefcfdc29:0x2d9a73d58a727c1e!8m2!3d51.3039913!4d12.3931086!16s%2Fg%2F1tj7vdjt!19sChIJKdzP77z5pkcRHnxyitVzmi0?authuser=0&hl=en&rclk=1
Leipzig-21,Dr. Mima Hohmann,Leipzig,Leipzig,·,51.325371,12.36924,·,,Unverified,2025-12-27,,,https://www.google.com/maps/place/Dr.+Mima+Hohmann/data=!4m7!3m6!1s0x47a6f82ca4f74759:0x5d02fa63ca1c14b0!8m2!3d51.325371!4d12.36924!16s%2Fg%2F1wn32pnm!19sChIJWUf3pCz4pkcRsBQcymP6Al0?authuser=0&hl=en&rclk=1
Leipzig-22,"Tagesklinik für Kleintiere - Dr. Volker Jähnig und Tierarzt Patrick Jähnig, GbR",Leipzig,Leipzig,·,51.3766482,12.4207056,·,,Unverified,2025-12-27,,,"https://www.google.com/maps/place/Tagesklinik+f%C3%BCr+Kleintiere+-+Dr.+Volker+J%C3%A4hnig+und+Tierarzt+Patrick+J%C3%A4hnig,+GbR/data=!4m7!3m6!1s0x47a657c3f732b389:0x7fc23759deca28ca!8m2!3d51.3766482!4d12.4207056!16s%2Fg%2F1vfp2ncx!19sChIJibMy98NXpkcRyijK3lk3wn8?authuser=0&hl=en&rclk=1"
Leipzig-23,"Dr.habil Beuche mit Notdienst Freit. Sa. Sonn,Feiertag nach tel. Anmeldung bis 21:30",Leipzig,Leipzig,·,51.2829048,12.45986,,,Unverified,2025-12-27,,Emergency Service,"https://www.google.com/maps/place/Dr.habil+Beuche+mit+Notdienst+Freit.+Sa.+Sonn,Feiertag+nach+tel.+Anmeldung+bis+21:30/data=!4m7!3m6!1s0x47a6feb2aa2cb533:0xe3a2887cc65424c6!8m2!3d51.2829048!4d12.45986!16s%2Fg%2F1vhlx67_!19sChIJM7UsqrL-pkcRxiRUxnyIouM?authuser=0&hl=en&rclk=1"
Leipzig-24,Tierarztpraxis Reudnitz,Leipzig,Leipzig,·,51.3304797,12.3983104,·,,Unverified,2025-12-27,,,https://www.google.com/maps/place/Tierarztpraxis+Reudnitz/data=!4m7!3m6!1s0x47a6f90ddc0a7dc7:0xa309464de1210587!8m2!3d51.3304797!4d12.3983104!16s%2Fg%2F11tcbq5cc4!19sChIJx30K3A35pkcRhwUh4U1GCaM?authuser=0&hl=en&rclk=1
Leipzig-25,Kleintierpraxis Weinlein,Leipzig,Leipzig,·,51.2872083,12.3924262,·,,Unverified,2025-12-27,,,https://www.google.com/maps/place/Kleintierpraxis+Weinlein/data=!4m7!3m6!1s0x47a6fa1af1294c29:0x70b2640eb4340d70!8m2!3d51.2872083!4d12.3924262!16s%2Fg%2F11hzxl6dmx!19sChIJKUwp8Rr6pkcRcA00tA5ksnA?authuser=0&hl=en&rclk=1
Leipzig-26,Dr.med.vet. Rüdiger Neumann,Leipzig,Leipzig,·,51.3292714,12.3366533,·,,Unverified,2025-12-27,,,https://www.google.com/maps/place/Dr.med.vet.+R%C3%BCdiger+Neumann/data=!4m7!3m6!1s0x47a6f772af16df33:0xf34c4e0de9c8cecc!8m2!3d51.3292714!4d12.3366533!16s%2Fg%2F1tfsgf5y!19sChIJM98Wr3L3pkcRzM7I6Q1OTPM?authuser=0&hl=en&rclk=1
Leipzig-27,Tierarztpraxis Jähnig,Leipzig,Leipzig,·,51.3509157,12.4090541,·,,Unverified,2025-12-27,,,https://www.google.com/maps/place/Tierarztpraxis+J%C3%A4hnig/data=!4m7!3m6!1s0x47a6f86e08c276cb:0x2e8a4ed3b2145ff0!8m2!3d51.3509157!4d12.4090541!16s%2Fg%2F11gbtzmh16!19sChIJy3bCCG74pkcR8F8UstNOii4?authuser=0&hl=en&rclk=1
Leipzig-28,Veterinär-Physiologisches Institut,Leipzig,Leipzig,An den Tierkliniken 7,51.3214287,12.3910428,,,Unverified,2025-12-27,,,https://www.google.com/maps/place/Veterin%C3%A4r-Physiologisches+Institut/data=!4m7!3m6!1s0x47a6f9b539dffbb9:0xcf13d7fe19b70fda!8m2!3d51.3214287!4d12.3910428!16s%2Fg%2F11dftrm_z6!19sChIJufvfObX5pkcR2g-3Gf7XE88?authuser=0&hl=en&rclk=1
Leipzig-29,Mitteldeutsches Kompetenzzentrum f. Kleintiere / Fachtierarzt / Tages-Tierklinik,Leipzig,Leipzig,·,51.3262103,12.4523443,·,,Unverified,2025-12-27,,,https://www.google.com/maps/place/Mitteldeutsches+Kompetenzzentrum+f.+Kleintiere+%2F+Fachtierarzt+%2F+Tages-Tierklinik/data=!4m7!3m6!1s0x47a6f9819a47120b:0x1e751503031f3485!8m2!3d51.3262103!4d12.4523443!16s%2Fg%2F11vr96zsq3!19sChIJCxJHmoH5pkcRhTQfAwMVdR4?authuser=0&hl=en&rclk=1
Leipzig-30,Manfred Seeliger veterinarian,Leipzig,Leipzig,·,51.3160911,12.3774582,·,,Unverified,2025-12-27,,,https://www.google.com/maps/place/Manfred+Seeliger+veterinarian/data=!4m7!3m6!1s0x47a6f9cede42c647:0xde06045bd33aaab8!8m2!3d51.3160911!4d12.3774582!16s%2Fg%2F1vzg183l!19sChIJR8ZC3s75pkcRuKo601sEBt4?authuser=0&hl=en&rclk=1
Leipzig-31,Tierarztpraxis - Dr. med. vet. Reinhart Voigt,Leipzig,Leipzig,·,51.3043587,12.3927106,,,Unverified,2025-12-27,,,https://www.google.com/maps/place/Tierarztpraxis+-+Dr.+med.+vet.+Reinhart+Voigt/data=!4m7!3m6!1s0x47a6f9bcf39325e7:0xd0d1bfc99c27c507!8m2!3d51.3043587!4d12.3927106!16s%2Fg%2F1td9v3zc!19sChIJ5yWT87z5pkcRB8UnnMm_0dA?authuser=0&hl=en&rclk=1
Leipzig-32,Tierarztpraxis an der Elster - Elstertierärzte,Leipzig,Leipzig,·,51.3257802,12.3408063,·,,Unverified,2025-12-27,,,https://www.google.com/maps/place/Tierarztpraxis+an+der+Elster+-+Elstertier%C3%A4rzte/data=!4m7!3m6!1s0x47a6f7825a3ea303:0xb43b27f3c73ad316!8m2!3d51.3257802!4d12.3408063!16s%2Fg%2F11fn8h5fz3!19sChIJA6M-WoL3pkcRFtM6x_MnO7Q?authuser=0&hl=en&rclk=1
Leipzig-33,Dr. med. Vet. Volker Jähnig,Leipzig,Leipzig,·,51.3509157,12.4090541,·,,Unverified,2025-12-27,,,https://www.google.com/maps/place/Dr.+med.+Vet.+Volker+J%C3%A4hnig/data=!4m7!3m6!1s0x47a6f87249cb9047:0x8b5b1a813f26ccab!8m2!3d51.3509157!4d12.4090541!16s%2Fg%2F1tfcb5vz!19sChIJR5DLSXL4pkcRq8wmP4EaW4s?authuser=0&hl=en&rclk=1
Leipzig-34,Universität Leipzig - Klinik für Pferde (Chirurgie),Leipzig,Leipzig,·,51.3194774,12.3930461,·,,Unverified,2025-12-27,,,https://www.google.com/maps/place/Universit%C3%A4t+Leipzig+-+Klinik+f%C3%BCr+Pferde+%28Chirurgie%29/data=!4m7!3m6!1s0x47a6f9b4f7b8f7ed:0x84dcf8eb6268a32a!8m2!3d51.3194774!4d12.3930461!16s%2Fg%2F11f4pjh990!19sChIJ7fe497T5pkcRKqNoYuv43IQ?authuser=0&hl=en&rclk=1
Leipzig-35,Dr.med.vet. Kristina Rottmayer,Leipzig,Leipzig,Zehmenstraße 11,51.3757648,12.3119854,,,Unverified,2025-12-27,,,https://www.google.com/maps/place/Dr.med.vet.+Kristina+Rottmayer/data=!4m7!3m6!1s0x47a65882df5e21c5:0x2c3092fa816c81d6!8m2!3d51.3757648!4d12.3119854!16s%2Fg%2F1tfcgspc!19sChIJxSFe34JYpkcR1oFsgfqSMCw?authuser=0&hl=en&rclk=1
Leipzig-36,Tierarztpraxis Dr. Jörg Rottmayer,Leipzig,Leipzig,·,51.3701766,12.3654649,·,,Unverified,2025-12-27,,,https://www.google.com/maps/place/Tierarztpraxis+Dr.+J%C3%B6rg+Rottmayer/data=!4m7!3m6!1s0x47a6580889be0b6f:0x9186da8e30002ef2!8m2!3d51.3701766!4d12.3654649!16s%2Fg%2F11b6dq97hl!19sChIJbwu-iQhYpkcR8i4AMI7ahpE?authuser=0&hl=en&rclk=1
Leipzig-37,Tierarztpraxis Yumeico,Leipzig,Leipzig,Großpösnaer Str. 7,51.2802568,12.4730032,,,Unverified,2025-12-27,,,https://www.google.com/maps/place/Tierarztpraxis+Yumeico/data=!4m7!3m6!1s0x47a6feaff595c7dd:0xa04c3972b4ae7b40!8m2!3d51.2802568!4d12.4730032!16s%2Fg%2F1q5bmyhjn!19sChIJ3ceV9a_-pkcRQHuutHI5TKA?authuser=0&hl=en&rclk=1
Leipzig-38,Tierarzt Claudia Ernst,Leipzig,Leipzig,·,51.2858412,12.3871003,·,,Unverified,2025-12-27,,,https://www.google.com/maps/place/Tierarzt+Claudia+Ernst/data=!4m7!3m6!1s0x47a6f98f4dc54433:0x32714df92461c3b2!8m2!3d51.2858412!4d12.3871003!16s%2Fg%2F11b6c_sb3h!19sChIJM0TFTY_5pkcRssNhJPlNcTI?authuser=0&hl=en&rclk=1
Leipzig-39,"Tierarztpraxis Großzschocher (ehem. TAP Junghanns), Inh. Dr. N. Graneß",Leipzig,Leipzig,·,51.2993724,12.3273853,·,,Unverified,2025-12-27,,,"https://www.google.com/maps/place/Tierarztpraxis+Gro%C3%9Fzschocher+%28ehem.+TAP+Junghanns%29,+Inh.+Dr.+N.+Grane%C3%9F/data=!4m7!3m6!1s0x47a6f7467f2515f5:0x272f863d693c0dab!8m2!3d51.2993724!4d12.3273853!16s%2Fg%2F1tfdcgzs!19sChIJ9RUlf0b3pkcRqw08aT2GLyc?authuser=0&hl=en&rclk=1"
Leipzig-40,Ashley Walter Cullis veterinary practice,Leipzig,Leipzig,·,51.39143,12.3316699,·,,Unverified,2025-12-27,,,https://www.google.com/maps/place/Ashley+Walter+Cullis+veterinary+practice/data=!4m7!3m6!1s0x47a6588aa4234d97:0xb071c646317aec1!8m2!3d51.39143!4d12.3316699!16s%2Fg%2F1td_9pzx!19sChIJl00jpIpYpkcRwa4XY2QcBws?authuser=0&hl=en&rclk=1
Leipzig-41,Kleintier- und Exotenpraxis Tierärztin Nadine Pahl - Leipzig,Leipzig,Leipzig,·,51.3129606,12.4174306,·,,Unverified,2025-12-27,,,https://www.google.com/maps/place/Kleintier-+und+Exotenpraxis+Tier%C3%A4rztin+Nadine+Pahl+-+Leipzig/data=!4m7!3m6!1s0x47a6f91834451651:0xb4df7e2f671a0a0f!8m2!3d51.3129606!4d12.4174306!16s%2Fg%2F11ssdr77rv!19sChIJURZFNBj5pkcRDwoaZy9-37Q?authuser=0&hl=en&rclk=1
Leipzig-42,Ambulante Tierarztpraxis Gabriela Kinder,Leipzig,Leipzig,Philipp-Reis-Straße 11c,51.3545083,12.3128845,,,Unverified,2025-12-27,,,https://www.google.com/maps/place/Ambulante+Tierarztpraxis+Gabriela+Kinder/data=!4m7!3m6!1s0x47a6f634f9254e13:0xd92c63dafb14a7df!8m2!3d51.3545083!4d12.3128845!16s%2Fg%2F1tyktd9h!19sChIJE04l-TT2pkcR36cU-9pjLNk?authuser=0&hl=en&rclk=1
Leipzig-43,Tierarztpraxis Leutzsch,Leipzig,Leipzig,·,51.3438726,12.3200846,·,,Unverified,2025-12-27,,,https://www.google.com/maps/place/Tierarztpraxis+Leutzsch/data=!4m7!3m6!1s0x47a6f7b529d7d5b9:0xd45a936baced4105!8m2!3d51.3438726!4d12.3200846!16s%2Fg%2F1tqydj6b!19sChIJudXXKbX3pkcRBUHtrGuTWtQ?authuser=0&hl=en&rclk=1
Leipzig-44,Mobiler Tierarztnotdienst Leipzig,Leipzig,Leipzig,"Kleintierpraxis Weinlein, Bornaische Str. 186",51.2872083,12.3924262,,,Unverified,2025-12-27,,Emergency Service; Mobile Service,https://www.google.com/maps/place/Mobiler+Tierarztnotdienst+Leipzig/data=!4m7!3m6!1s0x47a6fba2cf06f677:0x92bed52bd31b0ff3!8m2!3d51.2872083!4d12.3924262!16s%2Fg%2F11ht5h83tk!19sChIJd_YGz6L7pkcR8w8b0yvVvpI?authuser=0&hl=en&rclk=1
Leipzig-45,Augentierarzt,Leipzig,Leipzig,Delitzscher Str. 69,51.3691315,12.3859118,,,Unverified,2025-12-27,,,https://www.google.com/maps/place/Augentierarzt/data=!4m7!3m6!1s0x47a657fee995104d:0xecc83dd668ef261f!8m2!3d51.3691315!4d12.3859118!16s%2Fg%2F11qzc88cf3!19sChIJTRCV6f5XpkcRHybvaNY9yOw?authuser=0&hl=en&rclk=1
Leipzig-46,Tierarztpraxis Dr. Fränze Hering,Leipzig,Leipzig,Bornaische Str. 81,51.3018112,12.3841965,,,Unverified,2025-12-27,,,https://www.google.com/maps/place/Tierarztpraxis+Dr.+Fr%C3%A4nze+Hering/data=!4m7!3m6!1s0x47a6f98127a5b681:0x53662d77789db1b8!8m2!3d51.3018112!4d12.3841965!16s%2Fg%2F11kqc8wdq2!19sChIJgbalJ4H5pkcRuLGdeHctZlM?authuser=0&hl=en&rclk=1
Leipzig-47,Kleintierpraxis Leipzig Schönefeld,Leipzig,Leipzig,·,51.3508362,12.4089922,·,,Unverified,2025-12-27,,,https://www.google.com/maps/place/Kleintierpraxis+Leipzig+Sch%C3%B6nefeld/data=!4m7!3m6!1s0x47a6f86de753c5eb:0xebd5c91829aba56d!8m2!3d51.3508362!4d12.4089922!16s%2Fg%2F11ggbtd4qt!19sChIJ68VT5234pkcRbaWrKRjJ1es?authuser=0&hl=en&rclk=1
Leipzig-48,Tierärztliche Praxis für Haus- und Heimtiere,Leipzig,Leipzig,Landsberger Str. 32,51.3701766,12.3654649,,,Unverified,2025-12-27,,,https://www.google.com/maps/place/Tier%C3%A4rztliche+Praxis+f%C3%BCr+Haus-+und+Heimtiere/data=!4m7!3m6!1s0x47a6580889be0b6f:0x192894dbf7475b27!8m2!3d51.3701766!4d12.3654649!16s%2Fg%2F11f30p94vz!19sChIJbwu-iQhYpkcRJ1tH99uUKBk?authuser=0&hl=en&rclk=1
Leipzig-49,Klinik für Vögel und Reptilien - Universität Leipzig,Leipzig,Leipzig,An den Tierkliniken 17,51.3195184,12.3921402,,,Unverified,2025-12-27,,,https://www.google.com/maps/place/Klinik+f%C3%BCr+V%C3%B6gel+und+Reptilien+-+Universit%C3%A4t+Leipzig/data=!4m7!3m6!1s0x47a6f9b4fecbe7b5:0x177c64b7fcc3c11b!8m2!3d51.3195184!4d12.3921402!16s%2Fg%2F11gg9br8hy!19sChIJtefL_rT5pkcRG8HD_LdkfBc?authuser=0&hl=en&rclk=1
Leipzig-50,Tierärztliche Tagesklinik Weinlein,Leipzig,Leipzig,Dieskaustraße 330-334,51.2834061,12.3110443,,,Unverified,2025-12-27,,,https://www.google.com/maps/place/Tier%C3%A4rztliche+Tagesklinik+Weinlein/data=!4m7!3m6!1s0x47a6f1de07391a73:0xfbc90b4ea1b4fd7c!8m2!3d51.2834061!4d12.3110443!16s%2Fg%2F11vs01wvz_!19sChIJcxo5B97xpkcRfP20oU4Lyfs?authuser=0&hl=en&rclk=1
Munich-137,Kleintierklinik Dr. Lutz,Munich,Munich,Martin-Empl-Ring 3,48.1401286,11.6811747,089 908670,https://www.kleintierklinik-lutz.vet/,Verified,2025-12-27,Source Snippet: '...top service also in english ....',,https://www.google.com/maps/place/Kleintierklinik+Dr.+Lutz/data=!4m7!3m6!1s0x479e0abe18e1d64b:0xf16e349be3bf11d4!8m2!3d48.1401286!4d11.6811747!16s%2Fg%2F1tt8b7gm!19sChIJS9bhGL4KnkcR1BG_45s0bvE?authuser=0&hl=en&rclk=1
Munich-138,Center for Small Animal Medicine Munich,Munich,Munich,Seumestraße 3,48.0942391,11.5238016,089 54042430,https://www.zk-muc.de/,Verified,2025-12-27,Source Snippet: '...professional specialists who speak good...',,https://www.google.com/maps/place/Center+for+Small+Animal+Medicine+Munich/data=!4m7!3m6!1s0x479dd92eaee0346f:0xce44b46517e8dcf6!8m2!3d48.0942391!4d11.5238016!16s%2Fg%2F11b6nvpd3t!19sChIJbzTgri7ZnUcR9tzoF2W0RM4?authuser=0&hl=en&rclk=1
Munich-139,filu Tierarztpraxis Theresienwiese - Allgemein- und Notfallmedizin,Munich,Munich,Paul-Heyse-Straße 28,48.1356131,11.5555936,089 12086780,https://www.filu.vet/standorte/theresienwiese?utm_source=google&utm_medium=gmb,Verified,2025-12-27,Source Snippet: '...perfect english from both the...',,https://www.google.com/maps/place/filu+Tierarztpraxis+Theresienwiese+-+Allgemein-+und+Notfallmedizin/data=!4m7!3m6!1s0xa25fde0a2a754f6b:0x2b8e95417d12fb9d!8m2!3d48.1356131!4d11.5555936!16s%2Fg%2F11scqxf0_r!19sChIJa091KgreX6IRnfsSfUGVjis?authuser=0&hl=en&rclk=1
Munich-140,felmo Mobiler Tierarzt München,Munich,Munich,Am Moosfeld 13,48.134753,11.658236,089 21093270,https://felmo.de/tierarzt/muenchen?utm_medium=referral&utm_source=google_my_business&utm_term=muenchen,Verified,2025-12-27,"Source Snippet: '...ery convenient, excellent service, the doctor was speaking english ....'",,https://www.google.com/maps/place/felmo+Mobiler+Tierarzt+M%C3%BCnchen/data=!4m7!3m6!1s0x479e0ba12bc5db59:0x59666aa80228880f!8m2!3d48.134753!4d11.658236!16s%2Fg%2F11qnbrsvqd!19sChIJWdvFK6ELnkcRD4goAqhqZlk?authuser=0&hl=en&rclk=1
Munich-141,filu Tierarztpraxis Schwabing - Allgemein- und Notfallmedizin,Munich,Munich,Schleißheimer Str. 141,48.1642872,11.5640235,089 38038398,https://www.filu.vet/standorte/schwabing?utm_source=google&utm_medium=gmb,Verified,2025-12-27,Source Snippet: '...they all speak english and are very welcoming....',,https://www.google.com/maps/place/filu+Tierarztpraxis+Schwabing+-+Allgemein-+und+Notfallmedizin/data=!4m7!3m6!1s0x479e7501c09e3a33:0xfebf02047afa012!8m2!3d48.1642872!4d11.5640235!16s%2Fg%2F11vrdl2wsm!19sChIJMzqewAF1nkcREqCvRyDw6w8?authuser=0&hl=en&rclk=1
Munich-142,Dr. med. vet. Monika Koller,Munich,Munich,Buschingstraße 4,48.1435974,11.6179399,089 91077728,http://www.tierarzt-bogenhausen.de/,Verified,2025-12-27,Source Snippet: '...english spoken ....',,https://www.google.com/maps/place/Dr.+med.+vet.+Monika+Koller/data=!4m7!3m6!1s0x479e756e251faa3b:0x728363c8345c6705!8m2!3d48.1435974!4d11.6179399!16s%2Fg%2F1thbvnck!19sChIJO6ofJW51nkcRBWdcNMhjg3I?authuser=0&hl=en&rclk=1
Munich-143,Tierarztpraxis Moosach Dr. Bader-Mechler,Munich,Munich,Triebstraße 3/1. OG rechts,48.1878952,11.5262078,089 1414346,http://www.tierarzt-muenchen-moosach.de/,Verified,2025-12-27,Source Snippet: '...they are taking good care of our cat and they speak perfect ·...',,https://www.google.com/maps/place/Tierarztpraxis+Moosach+Dr.+Bader-Mechler/data=!4m7!3m6!1s0x479e76f98358b46b:0xe867e7eab9242d48!8m2!3d48.1878952!4d11.5262078!16s%2Fg%2F1tg85n7_!19sChIJa7RYg_l2nkcRSC0kuernZ-g?authuser=0&hl=en&rclk=1
Munich-144,Tierarztpraxis Dr. Heubeck,Munich,Munich,Traunsteiner Str. 34,48.1008017,11.5886823,089 6906600,http://www.tierarztpraxis-heubeck.de/,Verified,2025-12-27,Source Snippet: '...it is possible to communicate in english if you don't...',,https://www.google.com/maps/place/Tierarztpraxis+Dr.+Heubeck/data=!4m7!3m6!1s0x479ddfa6f94c26e5:0xa784b0f5035e016!8m2!3d48.1008017!4d11.5886823!16s%2Fg%2F1hc19304r!19sChIJ5SZM-abfnUcRFuA1UA9LeAo?authuser=0&hl=en&rclk=1
Munich-145,Tierärzte Würmtal,Munich,Munich,Münchner Str. 2a,48.0933125,11.4664324,089 7459925,https://www.tieraerzte-wuermtal.de/,Verified,2025-12-27,Source Snippet: '...can speak in ·...',,https://www.google.com/maps/place/Tier%C3%A4rzte+W%C3%BCrmtal/data=!4m7!3m6!1s0x479dd9a5189bbb55:0x31c795e805210991!8m2!3d48.0933125!4d11.4664324!16s%2Fg%2F1tdvckr9!19sChIJVbubGKXZnUcRkQkhBeiVxzE?authuser=0&hl=en&rclk=1

Stuttgart-New-1,Tierklinik Stuttgart Plieningen (AniCura),Stuttgart,Plieningen,Hermann-Fein-Straße 15,48.7061,9.2155,0711 637380,https://www.tierklinik-stuttgart.de/,Verified,2025-01-26,Emergency Service; English website; Highly recommended
Stuttgart-New-2,Kleintierpraxis Klaus Senger,Stuttgart,West,Schloßstraße 100,48.7758,9.1575,0711 617172,https://www.kleintierpraxis-stuttgart.de/,Verified,2025-01-26,English speaking team
Stuttgart-New-3,Tierarztpraxis Dr. Bendel,Stuttgart,Süd,Böblinger Str. 147,48.7612,9.1625,0711 7657276,https://www.tierarzt-stuttgart.de/,Verified,2025-01-26,English speaking team
Cologne-New-1,Tierarztpraxis am Aachener Weiher,Cologne,Lindenthal,Liliencronstraße 2 50931 Köln,50.935,6.925,0221 29826163,https://www.taw-koeln.de/,Verified,2025-01-26,Highly recommended on Reddit for English
Cologne-New-2,Tierarztpraxis an den Poller Wiesen,Cologne,Poll,Siegburger Str. 250 51105 Köln,50.915,6.985,0221 8999701,https://www.tierarztpraxis-poll.de/,Verified,2025-01-26,Reddit recommended; Online booking
Cologne-New-3,Vet Zentrum Köln (Kleintierklinik am Kö),Cologne,Braunsfeld,Scheidtweilerstraße 19 50933 Köln,50.940,6.890,0221 545764,https://www.vetzentrum-koeln.de/,Verified,2025-01-26,24/7 Emergency Clinic; Major center
